WKT,Facility_ID_Hazus,Facility_Name,Address,City,Zip_Code,Contact_Person,Phone_Number,Replacement_Cost_Thousands,Comment,GlobalID,Shape_X,Shape_Y
"POINT (528333.3246 4466029.0208)",IN000128,Mulberry Town Marshal,128 S Glick,Mulberry,46058-0000, , ,1442, ,{323F25AD-369F-441B-91B1-5DF927A61515},528333.3246,4466029.0208
"POINT (575924.0571 4407130.0669)",IN000325,Indianapolis Police Dept,3120 E 30th St,Indianapolis,46218-2851, , ,1442, ,{06DCFA8B-CF20-44CD-8B31-BD9A3E481A21},575924.0571,4407130.0669
"POINT (564131.6245 4501374.8692)",IN798780,Walton Police,100 S Depot Street,Walton,46994, , ,500, ,{7226E90D-189E-472E-909C-B710D4596477},564131.6245,4501374.8692
"POINT (596414.6794 4584812.4572)",IN798823,Milford Police Dept,121 S Main St,Milford,46542-0000, , ,1442, ,{9422A35E-03F5-4408-8937-5DB115AE0922},596414.6794,4584812.4572
"POINT (568350.6937 4612642.8389)",IN798937,Police Chief,200 N Church St,Mishawaka,46544-1423, , ,1442, ,{D56E4841-02EE-4AB3-A2F9-249B51849656},568350.6937,4612642.8389
"POINT (627391.8072 4463770.8503)",IN000049,Gaston Police Dept,107 N Sycamore St,Gaston,47342-0000, , ,1442, ,{BBC2405C-5D10-4EB2-9DE4-8EE3B4BD3035},627391.8072,4463770.8503
"POINT (597185.6567 4604200.7174)",IN000068,Goshen Police Dept,111 E Jefferson St # 5,Goshen,46528-3786, , ,1442, ,{15AE12E7-96EE-4949-BD46-CCE80AD2AFD2},597185.6567,4604200.7174
"POINT (541076.4641 4393367.6122)",IN000069,Clayton Police Dept,111 E Kentucky St,Clayton,46118-9482, , ,1442, ,{13069711-F899-4E15-BF9A-9567FAE2B85A},541076.4641,4393367.6122
"POINT (469974.7177 4243458.0743)",CO790071,Oakland City Police Dept,210 E Washington St,Oakland City,47660-1548, , ,1442,CountyApproved,{007DD332-E171-4292-BE10-81A244853A4A},469974.7177,4243458.0743
"POINT (450462.9537 4245608.1807)",CO790070,Gibson County Sheriffs Office,112 E Emerson St,Princeton,47670-1802, , ,1442,CountyApproved,{69F9515C-1CA6-4194-ACD3-620B54E11E57},450462.9537,4245608.1807
"POINT (578306.3749 4273331.2945)",IN000057,Washington County Police Dept,108 S Main St,Salem,47167-2022, , ,1442, ,{338495D6-0986-4589-971A-33670245109B},578306.3749,4273331.2945
"POINT (656256.6397 4549351.6152)",IN000002,Allen CO Sheriff Dept Bur-Id,1 E Main St # 102,Fort Wayne,46802-1804, , ,1442, ,{4717413A-1C3A-40CE-B005-6794E4059C02},656256.6397,4549351.6152
"POINT (515034.6366 4488589.0106)",IN000007,Battle Ground Police Dept,100 College St,Battle Ground,47920-0000, , ,1442, ,{C80B85F1-4F42-4861-8F42-8E1A08665A0A},515034.6366,4488589.0106
"POINT (540312.11 4488717.1567)",IN000004,Flora Police Dept,10 N Center St,Flora,46929-1001, , ,1442, ,{4FA0BB44-DBE7-44FA-B902-E83E6C905206},540312.11,4488717.1567
"POINT (489765.9522 4374899.302)",CO751140,Clay County Justice Center,611 E. Jackson St.,Brazil,47834, , ,1442,CountyApproved,{63C9A0CB-C305-42F0-8637-156382A44466},489765.9522,4374899.302
"POINT (489296.6245 4374869.9719)",CO751138,Brazil Police Dept,203 E National Ave,Brazil,47834-2665, , ,1442,CountyApproved,{1184B3E0-3ABE-4839-B4E0-F117E670F2EC},489296.6245,4374869.9719
"POINT (490240.358 4347441.3911)",CO751137,Clay City Police Dept,111 W 8th St,Clay City,47841-1311, , ,1442,CountyApproved,{73CDD106-4F62-4055-A82C-655A88A66038},490240.358,4347441.3911
"POINT (489737.7227 4375000.3324)",CO751139,Clay County Criminal Div,609 E National Ave # 302,Brazil,47834-2659, , ,1442,CountyApproved,{B28E482C-40B8-45CF-9598-0C3073929714},489737.7227,4375000.3324
"POINT (659692.5831 4389616.7479)",CO781490,Connersville Police Station,100 E 5th St,Connersville,47331-2021, , ,1442,County Approved,{6C692273-3AFF-4241-AA8A-CAACE5C27215},659692.5831,4389616.7479
"POINT (491982.0236 4482041.3629)",IN000014,Otterbein Town Police Dept,104 E 2nd,Otterbein,47970-0000, , ,1442, ,{CCE61DBB-6CDD-4E83-AEC3-E439F9A6F7E4},491982.0236,4482041.3629
"POINT (581947.4549 4598853.3697)",IN000016,Wakarusa Police Dept,102 S Spring St,Wakarusa,46573-0000, , ,1442, ,{D4571C88-CA6A-4FFA-A203-19275F441B3C},581947.4549,4598853.3697
"POINT (508028.4244 4618764.4614)",IN000017,Police Dept,102 W 2nd St,Michigan City,46360-3231, , ,1442, ,{13759700-FB72-445A-A245-736A69FF3AE3},508028.4244,4618764.4614
"POINT (549246.2851 4541102.5034)",IN000059,Kewanna Police Dept,109 E Aurora St,Kewanna,46939-0000, , ,1442, ,{2A45803B-FD21-4B06-BBD1-55875E8CD8A4},549246.2851,4541102.5034
"POINT (615090.9594 4466157.3318)",IN000061,Summitville Police Dept,109 S Main,Summitville,46070-0000, , ,1442, ,{E9CDDB22-1205-434F-B7E2-23033CB1287E},615090.9594,4466157.3318
"POINT (659540.6712 4389490.3438)",CO781491,Fayette County Sheriff's Dept,123 W 4th St,Connersville,47331-1901, , ,1442,County Approved,{CA125873-CCE2-45E4-AF0E-F43CC671BDB1},659540.6712,4389490.3438
"POINT (588300.1154 4247875.9124)",CO790365,Greenville Town Marshall,9706 Clark,Floyds Knobs,47119-0000, , ,1442,CountyApproved,{BDCE862F-4D7C-4B94-89F2-3018CEA95F73},588300.1154,4247875.9124
"POINT (589389.0766 4238996.5059)",CO790364,Georgetown Police Dept,9110 State Road 64,Georgetown,47122-8977, , ,1442,CountyApproved,{515F6DD2-95AB-4DDA-8415-E599F242AA8F},589389.0766,4238996.5059
"POINT (602774.413 4238020.2616)",CO790363,New Albany Police\Sheriff\Jail,311 W 1st St # 131,New Albany,47150-3585, , ,1442,CountyApproved,{3CD055FC-30E3-4456-8C67-56FD207EDA3F},602774.413,4238020.2616
"POINT (631749.1259 4583854.4813)",IN000066,Albion Police Dept,110 S Orange St,Albion,46701-1127, , ,1442, ,{8DFC18AE-EF0F-4348-AB71-C06A07A1AF0B},631749.1259,4583854.4813
"POINT (508397.637 4598900.8513)",IN000020,Westville Town Marshall,106 Ridge St,Westville,46391-0000, , ,1442, ,{6FD982DB-3E47-447D-9F52-72F9E9AB47C7},508397.637,4598900.8513
"POINT (637332.5116 4450596.6099)",IN000025,County Police,100 W Washington St,Muncie,47305-1752, , ,1442, ,{FE293626-A978-475A-ACB4-CF66545EFCDA},637332.5116,4450596.6099
"POINT (638293.604 4447911.4665)",IN000027,Muncie Police Dept-Cop Shop,1008 E 20th St,Muncie,47302-5303, , ,1442, ,{B27018CA-10EB-4887-85EF-6B6613F509BE},638293.604,4447911.4665
"POINT (461205.8263 4242780.8611)",CO790074,FRANCISCO POLICE DEPARTMENT,230 E MAIN ST,FRANCISCO,47649, , ,1442,CountyApproved,{2F813DE3-C225-4C5B-BDE0-D37C3E1B1D7E},461205.8263,4242780.8611
"POINT (448867.7783 4251021.0261)",CO790077,PATOKA POLICE DEPARTMENT,PO BOX 158,PATOKA,47666, , ,1442,CountyApproved,{64C377A7-0C93-499F-B0EC-11E53371C18C},448867.7783,4251021.0261
"POINT (439972.9719 4236235.1033)",CO790076,OWENSVILLE POLICE DEPARTMENT,BRUMMIT ST,OWENSVILLE,47665, , ,1442,CountyApproved,{ADBA5D5F-EBB3-452F-B4B5-79727C9AE1AE},439972.9719,4236235.1033
"POINT (449229.8316 4233454.2459)",CO790073,FORT BRANCH POLICE DEPARTMENT,210 W LOCUST ST,FORT BRANCH,47648, , ,1442,CountyApproved,{C8D7B900-2735-4F17-89CE-D4EE8BBD5340},449229.8316,4233454.2459
"POINT (450174.9559 4245521.183)",CO790072,Princeton Police Dept,310 W State St,Princeton,47670-1342, , ,1442,CountyApproved,{1583B85E-16A5-41D3-AEA5-3A3CC702B63A},450174.9559,4245521.183
"POINT (661289.4072 4599068.3166)",IN000033,Ashley Police Dept,101 S Union Ave,Ashley,46705-0000, , ,1442, ,{46B9AC8B-6DDB-4E96-8F71-588E71C44898},661289.4072,4599068.3166
"POINT (617885.5387 4591212.5719)",IN000040,Ligonier Police Dept,103 W 3rd St,Ligonier,46767-1903, , ,1442, ,{1C3DF95B-72F3-4B4B-ADFD-A1732F214E82},617885.5387,4591212.5719
"POINT (582843.4286 4452199.3555)",IN000044,Atlanta Town Marshall,105 E Main St,Atlanta,46031-0000, , ,1442, ,{ABCFBBBE-A169-4168-B591-1B9991D45B94},582843.4286,4452199.3555
"POINT (603376.2363 4453636.0471)",IN000045,Frankton Police Dept,105 S Church St,Frankton,46044-0000, , ,1442, ,{58607DFC-F4C1-4167-9CFF-7CE2A511E7B3},603376.2363,4453636.0471
"POINT (473226.0706 4496358.8123)",IN000046,Benton County Sheriff,105 S Lincoln Ave,Fowler,47944-1544, , ,1442, ,{E9E10C4E-372B-4D1D-A619-1875A775A475},473226.0706,4496358.8123
"POINT (631942.1606 4609372.2074)",IN798833,Lagrange Sheriff Office,875  S SR 9,Lagrange,46761-1809, , ,5196, ,{6856EDC7-1B70-4E58-B821-2E63384E90F6},631942.1606,4609372.2074
"POINT (605006.9307 4375252.0533)",IN798948,Shelbyville Police Dept,105 W Taylor St,Shelbyville,46176-2028, , ,1442, ,{0BEB8644-FA03-4376-AFBB-7E011DC62AC0},605006.9307,4375252.0533
"POINT (597021.0887 4604533.8485)",IN000071,Elkhart County Sheriffs Dept,111 N 3rd St,Goshen,46526-3299, , ,1442, ,{0D01A3C5-24E8-44C7-BAE8-E8363F58A18B},597021.0887,4604533.8485
"POINT (587594.8226 4481342.226)",IN000076,Greentown Police Dept,112 N Meridian St,Greentown,46936-1220, , ,1442, ,{E02E9212-DAE6-44C4-8875-0F3E599CE28E},587594.8226,4481342.226
"POINT (449678.4458 4228755.5354)",CO790075,HAUBSTADT POLICE DEPARTMENT,101 S MAIN ST,HAUBSTADT,47639, , ,1442,CountyApproved,{622FF8FE-ECF4-415C-A1F4-42B7F67417A3},449678.4458,4228755.5354
"POINT (576381.2696 4229582.7376)",CO719040,Corydon Town Marshall,113 N Oak St,Corydon,47112-1123, , ,1442,County Approved,{587AEDC4-6702-47E6-811A-6E78E87D2D4B},576381.2696,4229582.7376
"POINT (588841.2596 4232650.4885)",CO719042,Lanesville Town Marshall,7501 Main St NE,Lanesville,47136-8615, , ,1442,County Approved,{1F541CE3-F804-480C-9DEF-F654302678C4},588841.2596,4232650.4885
"POINT (575000.6842 4230890.3769)",CO719041,Harrison County Sheriff's Ofc,1445 Gardner Ln NW # 1000,Corydon,47112-2079, , ,1442,County Approved,{ADCEA76D-A512-4B5A-9DD8-ADBB147D5755},575000.6842,4230890.3769
"POINT (641139.164 4288719.264)",CO798758,Jefferson County Sheriff,317 S Walnut St,Madison,47250-3523, , ,1442,CountyApproved,{6ED8E402-98A4-4C25-B7BB-C16A8DFB8475},641139.164,4288719.264
"POINT (640750.0605 4288744.5642)",CO798756,Madison Police Dept,101 W Main St,Madison,47250-3777, , ,1442,CountyApproved,{C925FEF9-15E3-4F44-8522-C9E44486C060},640750.0605,4288744.5642
"POINT (605393.4952 4404497.1113)",IN000085,Greenfield Police Dept,116 S State St,Greenfield,46140-2330, , ,1442, ,{CFABAC14-F411-4215-B15D-218069DE18CC},605393.4952,4404497.1113
"POINT (651922.3111 4470831.5812)",IN000094,Dunkirk Police Dept,118 S Main St,Dunkirk,47336-1250, , ,1442, ,{D5CA9EE3-76D6-475C-9F1A-A7F95A10988A},651922.3111,4470831.5812
"POINT (633270.7397 4286168.0937)",CO798757,Hanover Police Dept,11 N Madison Ave,Hanover,47243-9696, , ,1442,CountyApproved,{710ED583-D0D6-49A7-8079-7783953CAB4D},633270.7397,4286168.0937
"POINT (545980.6744 4286812.5091)",CO781081,Mitchell Police Dept,407 S 6th St,Mitchell,47446-1710, , ,1442,CountyApproved,{2E23850B-1BE3-4F77-B6FE-C6D295C81020},545980.6744,4286812.5091
"POINT (544903.2897 4301624.4109)",CO781079,Lawrence County Sheriff,1420 I St,Bedford,47421-3324, , ,1442,CountyApproved,{D931C0B9-BB7B-42BA-853A-0509D79E54C3},544903.2897,4301624.4109
"POINT (544611.1466 4301426.3384)",CO781080,Bedford Police Dept,1617 K St,Bedford,47421-3725, , ,1442,CountyApproved,{C06308D0-7ABC-40E1-8D30-92BED2F02149},544611.1466,4301426.3384
"POINT (541081.7942 4305894.9836)",CO781078,Oolitic Police Dept,109 Main St,Oolitic,47451-9603, , ,1442,CountyApproved,{2B0C318A-11FB-4B98-A068-59A0B8FBAEBF},541081.7942,4305894.9836
"POINT (677774.9845 4588643.1654)",IN000100,Butler Police Dept,120 W Main St,Butler,46721-1322, , ,1442, ,{9738911B-B7E3-4734-B9B0-C9D7D50AE54A},677774.9845,4588643.1654
"POINT (546798.1426 4242549.2082)",CO610678,Crawford County Sheriff's Dept,Court St,English,47118, ,812-338-2802,1442,"Updated by TPC, 10/15/05",{A82DBE93-61B0-45E5-91B8-551DAC2C3E17},546798.1426,4242549.2082
"POINT (647305.5253 4580828.7979)",IN000086,Avilla Police Dept,117 S Main St,Avilla,46710-0000, , ,1442, ,{D978B78C-FA4B-4D86-A007-81F114096866},647305.5253,4580828.7979
"POINT (660028.8727 4599710.0438)",IN000089,Hudson Police Dept,115 W Parsonage St,Hudson,46747-0000, , ,1442, ,{599B90B5-0252-4E2E-8230-EE8DC50FB2BD},660028.8727,4599710.0438
"POINT (573693.9043 4400462.8008)",IN000091,Indianapolis Police Dept,1150 Shelby St,Indianapolis,46203-1166, , ,1442, ,{3DC3B978-3B3F-4084-A4A6-0F66E158A756},573693.9043,4400462.8008
"POINT (588954.5015 4403434.003)",IN000092,Cumberland Police Dept,11501 E Washington St,Cumberland,46229-2827, , ,1442, ,{2549CEEC-6CB5-4988-9E77-4A1B99F6D0D7},588954.5015,4403434.003
"POINT (418093.8328 4220628.1094)",CO782036,New Harmony Police Dept,520 E Church St,New Harmony,47631-0000, , ,1442,CountyApproved,{0C89B7FA-1101-4824-89BF-11C0B202D715},418093.8328,4220628.1094
"POINT (437955.7737 4226868.2341)",CO782034,Cynthiana Police Dept,10868 Main St,Cynthiana,47612-0000, , ,1442,CountyApproved,{85A0CB35-D17D-4A3C-B83C-11AFFBC2F110},437955.7737,4226868.2341
"POINT (607107.8973 4428782.0401)",IN000107,Pendleton Police Dept,122 E State St,Pendleton,46064-1027, , ,1442, ,{BF6EE36C-4763-4E40-A38A-DA4A0423ADBF},607107.8973,4428782.0401
"POINT (563146.2982 4244095.3176)",CO610679,Milltown Police Dept,207 Poplar St,Milltown,47145, ,812-633-2045,1442,"Added by TPC, 10/15/05",{7978F4BE-7539-471B-BCA2-859B9B3C64DA},563146.2982,4244095.3176
"POINT (617973.3288 4365119.2014)",CO755995,St Paul Police Department,"108 Webster Street
",St Paul,47272, , ,1442,CountyApproved,{2D3AF32D-18AE-4681-A571-745BCE84039F},617973.3288,4365119.2014
"POINT (681071.8294 4622147.39)",IN000110,Clear Lake Police Dept,122 Outer Drive Clear Lk,Fremont,46737-9513, , ,1442, ,{83AA60AA-686D-4AF2-AE87-BB254512E8D9},681071.8294,4622147.39
"POINT (605481.469 4404639.3063)",IN000114,Hancock County Sheriff Dept,123 E Main St,Greenfield,46140-2347, , ,1442, ,{E14B89CA-5832-438C-AF6D-FAFF539D0E2F},605481.469,4404639.3063
"POINT (635558.5709 4594767.8422)",IN000115,Rome City Police Dept,123 Kerr Ave,Rome City,46784-1029, , ,1442, ,{D3647FEB-9E87-4F54-ADF0-48CE479845D8},635558.5709,4594767.8422
"POINT (419991.0275 4199181.5349)",CO782035,Posey County Sheriff and Jail,1201 Odonnell Rd,Mt Vernon,47620-9224, , ,1442,CountyApproved,{DF20177D-57F3-407A-8D3A-3DD490A62DC0},419991.0275,4199181.5349
"POINT (593156.0388 4339466.6979)",IN000118,Police Dept-Investigations,123 Washington St # 11,Columbus,47201-6774, , ,1442, ,{BB1ECD99-5895-4380-B721-B39C46FCB775},593156.0388,4339466.6979
"POINT (593156.0388 4339466.6979)",IN000119,Police Chief's Office,123 Washington St,Columbus,47201-6774, , ,1442, ,{E27ABD33-44A2-483D-9FF7-B83CC565B7E9},593156.0388,4339466.6979
"POINT (532962.0726 4266577.5542)",CO659987,French Lick Police Dept,122 Indiana Ave,French Lick,47432-1045, ,812-936-9811,1442, ,{03F2EAD1-C655-4D09-9E44-6DB6EAB9E840},532962.0726,4266577.5542
"POINT (653394.6437 4562606.0268)",IN000123,Allen County Sheriff Criminal,12535 Lima Rd,Fort Wayne,46818-8903, , ,1442, ,{C1B1E506-3DE5-42E6-A8D5-854A50FFA602},653394.6437,4562606.0268
"POINT (584156.1615 4433142.4836)",IN000138,Noblesville Police Dept,135 S 9th St,Noblesville,46060-2620, , ,1442, ,{F42C5E10-1E2F-44EE-8D21-252A7CB79C82},584156.1615,4433142.4836
"POINT (637375.0696 4449286.0251)",IN000142,Muncie Police DEPT-Pal Club,1405 S Walnut St,Muncie,47302-3264, , ,1442, ,{3581244F-B329-4EA3-BAA1-38FE3DE87338},637375.0696,4449286.0251
"POINT (610673.2487 4439848.4572)",IN000143,Anderson Police Dept,1407 Arrow Ave,Anderson,46016-3231, , ,1442, ,{40290D80-E48E-4363-873D-C630D1AC4B6B},610673.2487,4439848.4572
"POINT (564155.9513 4404195.3901)",IN000144,Speedway Police Dept,1410 N Lynhurst Dr,Speedway,46224-6407, , ,1442, ,{BE0DF8F4-C012-47D3-BD25-A9AF9C0C221E},564155.9513,4404195.3901
"POINT (421271.9437 4198862.8579)",CO782037,Mt Vernon Police Dept,526 Main St,Mt Vernon,47620-1846, , ,1442,CountyApproved,{843572B6-21E7-4AAF-9B5D-85650AE64851},421271.9437,4198862.8579
"POINT (598152.4923 4435818.2458)",IN000130,Lapel Police Dept,13 E 7th St,Lapel,46051-0000, , ,1442, ,{7B0C685D-A408-479E-8715-E6A87478520D},598152.4923,4435818.2458
"POINT (657955.52 4547659.8073)",IN000139,Fort Wayne Police Dept,1320 E Creighton Ave,Fort Wayne,46803-3502, , ,1442, ,{2F9CA5C6-B9C9-4283-B3F6-2EE627289B2B},657955.52,4547659.8073
"POINT (431632.3261 4225191.3037)",CO782038,POSEYVILLE POLICE DEPARTMENT,77 N ST FRANCIS AVE,PoseyVille Polic Department,47620, , ,1442,CountyApproved,{EB01A005-BD7D-499D-8DE7-94E533D2DDEB},431632.3261,4225191.3037
"POINT (501372.0636 4411650.6434)",CO719721,Russellville Town Marshall,213 S Harrison,Russellville,46175-0000, , ,1442,CountyApproved,{96494690-0B63-48C5-AEC4-AA23BEBEAB24},501372.0636,4411650.6434
"POINT (521145.9011 4391343.6596)",CO719724,Fillmore Town Marshall,2 N Main St,Fillmore,46128, , ,1442,CountyApproved,{7A277E6A-7421-4C00-84B2-C975A8CA8FB5},521145.9011,4391343.6596
"POINT (517660.1751 4373381.1397)",CO719717,Cloverdale Police Dept,154 S Main St,Cloverdale,46120-8538, , ,1442,CountyApproved,{EFAE3249-2385-41BA-BF57-6CF9768FEE68},517660.1751,4373381.1397
"POINT (512468.005 4387064.0402)",CO719718,Putnam County Sheriff's Ofc,13 Keightly Rd,Greencastle,46135-2227, , ,1442,CountyApproved,{8E5C2CE5-5F35-411C-8095-3B5BB49D8B10},512468.005,4387064.0402
"POINT (509639.9651 4379858.3123)",CO719719,Indiana State Police Dstrct 53,1927 W Us Highway 40,Greencastle,46135-8706, , ,1442,CountyApproved,{E27DAA1F-BE2D-4605-88AA-F92EF631AE91},509639.9651,4379858.3123
"POINT (516925.5939 4411389.5596)",CO719722,Roachdale Town Marshall,205 N Indiana,Roachdale,46172-0198, , ,1442,CountyApproved,{950D576C-23EA-4930-BD26-09383C54C951},516925.5939,4411389.5596
"POINT (673227.3828 4502670.5936)",IN000161,Berne Police Dept,158 W Franklin St,Berne,46711-2144, , ,1442, ,{94958794-48AF-41AD-AAFF-5088066E601E},673227.3828,4502670.5936
"POINT (612584.6481 4440481.6742)",IN000162,Madison County Sheriffs Dept,16 E 9th St # 305,Anderson,46016-1538, , ,1442, ,{497AFB7C-7C89-4769-85EE-ED293316B497},612584.6481,4440481.6742
"POINT (598623.02 4459151.082)",IN000167,Elwood Police Dept,1601 Main St,Elwood,46036-2024, , ,1442, ,{9D8DC072-C9C2-4A10-BC22-A73E0DE2E092},598623.02,4459151.082
"POINT (511676.8538 4388155.9894)",CO719720,Greencastle Police Dept,652 N Jackson,Greencastle,46135-1527, , ,1442,CountyApproved,{9045A06A-73BC-4BC3-8457-3A9A86C56E9C},511676.8538,4388155.9894
"POINT (516108.5503 4401260.2215)",CO719723,Bainbridge Town Marshall,201 N Grant,Bainbridge,46105-0385, , ,1442,CountyApproved,{EF7DC9E4-00E0-43AC-8351-CDB1391084A5},516108.5503,4401260.2215
"POINT (585654.8972 4434076.1639)",IN000181,Hamilton County Sheriffs Dept,18100 Cumberland Rd,Noblesville,46060-1624, , ,1442, ,{84033421-807E-4C9F-B4A7-744CFD23E713},585654.8972,4434076.1639
"POINT (540545.8059 4401301.6011)",IN000153,Danville Police Dept,147 W Main St,Danville,46122-1705, , ,1442, ,{53CD2E9C-8FC3-494B-B4C9-662521E1C5A7},540545.8059,4401301.6011
"POINT (652221.9098 4510565.5898)",IN000158,Wells County Sheriff Dept,1525 Corning Rd,Bluffton,46714-9790, , ,1442, ,{A2EEDBBF-6E71-4FB0-A66E-F350CE620F66},652221.9098,4510565.5898
"POINT (662098.3501 4331824.8729)",CO746273,Milan Town Police Dept,412 E Carr St.,Milan,47031-8891, , ,1442,County Approved,{C7C68A4F-4B02-4914-87AA-136E8B1CB967},662098.3501,4331824.8729
"POINT (653221.7183 4351249.7188)",CO746274,Batesville Police Dept,132 S Main St,Batesville,47006-1345, , ,1442,County Approved,{AAD854F4-B489-4445-A271-C35C6D7CA693},653221.7183,4351249.7188
"POINT (639458.4455 4326349.7169)",CO746279,Holton Police Dept,7044 Versailles St.,Holton, , , ,1442,County Approved,{BE41723B-DEDC-4A89-959D-C71607A01395},639458.4455,4326349.7169
"POINT (664469.5712 4344723.2911)",CO746278,Sunman Police Dept,119 S Meridian St,Sunman,47041-0000, , ,1442,County Approved,{EE530F26-186E-4099-AC8D-5CD3E74F2ECE},664469.5712,4344723.2911
"POINT (651311.5272 4326085.9902)",CO746272,Versailles Police Dept,100 E Water St,Versailles,47042-0000, , ,1442,County Approved,{BDE72EAF-9B80-4212-B49B-65BAB39A4E6B},651311.5272,4326085.9902
"POINT (638975.3638 4449053.2307)",IN000171,Muncie Police Dept-Cop Shop 6,1610 S Macedonia Ave,Muncie,47302-3647, , ,1442, ,{2C5948AD-8EA1-4125-931E-A2D00AA20CBF},638975.3638,4449053.2307
"POINT (533701.7605 4268685.6407)",CO659991,West Baden Springs Police Dept,8272 W Ballard,West Baden Springs,47469, ,812-936-4614,1442,"ADDED BY TPC, 11/11/05",{478F7CC5-A088-4524-9B28-AEB6E944649C},533701.7605,4268685.6407
"POINT (545478.519 4267665.2709)",CO659990,Paoli Police Dept,816 W Main St,Paoli,47454-1041, ,812-723-2836,1442, ,{19FBC772-16CC-40A2-BEF1-D9A9E104C567},545478.519,4267665.2709
"POINT (648012.754 4513243.4335)",IN000173,Wells County Sheriff Dept,1615 W Western Ave,Bluffton,46714-9792, , ,1442, ,{EBF688F8-FA91-47F9-AFBB-CF1A75123FAF},648012.754,4513243.4335
"POINT (638820.8022 4451624.2742)",IN000175,Muncie Police Dept-Cop Shop,1621 E Highland Ave,Muncie,47303-3948, , ,1442, ,{FD202FCD-5DB4-4DDB-9F6C-656E09BC204A},638820.8022,4451624.2742
"POINT (511594.4631 4615071.1563)",IN000177,Indiana State Excise Police,1712 E Us Highway 20,Michigan City,46360-7502, , ,1442, ,{3E2251A6-BF89-47B5-8E4F-C1CDD771AD6B},511594.4631,4615071.1563
"POINT (636250.9011 4448623.8808)",IN000209,Muncie Police Dept-Cop Shop,2009 S Hoyt Ave,Muncie,47302-3009, , ,1442, ,{4513E471-4019-4A36-8C2F-391DA5EA7CDE},636250.9011,4448623.8808
"POINT (585591.937 4615480.5485)",IN000178,Elkhart Police Dept,175 Waterfall Dr,Elkhart,46516-3699, , ,1442, ,{C6844CB8-D9EA-4695-9D46-80D8C753F15E},585591.937,4615480.5485
"POINT (470321.8371 4600297.1095)",IN798856,Community Policing,3572 Grant St,Gary,46408-1422, , ,1442, ,{9AED87D3-8BF4-443C-87EC-D6B584570A8D},470321.8371,4600297.1095
"POINT (650925.0261 4325120.4243)",CO746277,Indiana State Police Dept,902 S Adams St,Versailles,47042-9796, , ,1442,County Approved,{BFB91179-FA01-4B4C-AF50-6A378B3D958C},650925.0261,4325120.4243
"POINT (651448.2159 4326268.4818)",CO746276,Ripley County Sheriff's Dept,210 N Monroe St,Versailles,47042-9529, , ,1442,County Approved,{98638815-B339-4AA9-9D0E-B48DFE37294D},651448.2159,4326268.4818
"POINT (647624.0554 4332472.9446)",CO746275,Osgood Police Dept,147 W Ripley St,Osgood,47037-1228, , ,1442,County Approved,{F8497410-865C-48E0-A411-10086EB54B45},647624.0554,4332472.9446
"POINT (572390.4108 4432693.7855)",IN000179,Westfield Police Dept,17535 Dartown Rd,Westfield,46074-8969, , ,1442, ,{284CCD54-BEEB-49CD-A354-39569C58FC4A},572390.4108,4432693.7855
"POINT (571553.6845 4480963.9972)",IN000180,Eastern Howard County Sheriff,1800 W Markland Ave,Kokomo,46901-6126, , ,1442, ,{6E2A7C01-FF64-4F04-B920-A09BC00C5320},571553.6845,4480963.9972
"POINT (654863.8544 4550671.5092)",IN000186,Fort Wayne Police Training Ctr,1903 Saint Marys Ave,Fort Wayne,46808-2331, , ,1442, ,{61B50A1E-75F2-468A-BECB-F92F13D581AB},654863.8544,4550671.5092
"POINT (607103.8875 4282471.17)",CO746774,Scott County Sheriff,111 S 1st St,Scottsburg,47170-1802, , ,1442,County Approved,{FA8343AC-8A6B-423E-977E-A0E2A2DF3A9E},607103.8875,4282471.17
"POINT (604912.2811 4283015.8435)",CO746775,Scottsburg Police Dept,203 S Lake Road North Dr.,Scottsburg,47170-1637, , ,1442,County Approved,{B7BD10AD-609F-4C19-AEB1-67542F05EF17},604912.2811,4283015.8435
"POINT (603685.2459 4288797.8919)",CO746776,Austin Police Dept,80 W Main St,Austin,47102-1659, , ,1442,County Approved,{04E3D9B8-FFC7-4391-A251-6EFBF25D1F4A},603685.2459,4288797.8919
"POINT (667785.7926 4290563.4009)",CO740186,Switzerland County Jail,402 Liberty Street,Vevay,47043, , ,1442,CountyApproved,{097CB2A6-B314-4F1A-BEAC-31AC14097D6B},667785.7926,4290563.4009
"POINT (667785.7926 4290563.4009)",CO740184,Switzerland County Sheriff Ofc,401 Liberty Street,Vevay,47043-1117, , ,1442,CountyApproved,{92EA9208-2C13-4C90-8039-C8AB9DE2C1DF},667785.7926,4290563.4009
"POINT (610974.4239 4459429.4881)",IN000194,Orestes Police Dept,2 S Superior,Orestes,46063-0000, , ,1442, ,{8D4ED716-0055-427F-95C9-6681EFD1F73D},610974.4239,4459429.4881
"POINT (509277.8305 4474108.6012)",IN000195,Lafayette Police Dept,20 N 6th St # 2,Lafayette,47901-1410, , ,1442, ,{BF60DF74-2FA8-4306-9BB1-DD932E0FA298},509277.8305,4474108.6012
"POINT (509277.8305 4474108.6012)",IN000196,Lafayette Police Detective Div,20 N 6th St,Lafayette,47901-1412, , ,1442, ,{D9437F6F-6D2E-43EF-B385-F4B78783EDC7},509277.8305,4474108.6012
"POINT (643561.1614 4352491.4445)",CO755997,New Point Marshalls office,E CR 195 S,New Point,47263, , ,1442,CountyApproved,{EA3C787C-C728-4765-B255-F5302D2AA116},643561.1614,4352491.4445
"POINT (540674.4275 4401276.7543)",IN000198,Danville Police Dept,20 S Jefferson St,Danville,46122-1702, , ,1442, ,{7CE07448-43B2-464B-9954-F0B9449CE687},540674.4275,4401276.7543
"POINT (564791.294 4340164.9417)",IN000199,Nashville Town Marshall,200 Commercial Dr,Nashville,47448-0000, , ,1442, ,{A181301F-4E95-4554-901C-B2F9449FC153},564791.294,4340164.9417
"POINT (672687.4582 4495461.6136)",IN000200,Geneva Police Dept,200 E Line St,Geneva,46740-8807, , ,1442, ,{1F7485E1-518B-460F-BFD0-8093D63E8D4A},672687.4582,4495461.6136
"POINT (655865.1618 4579418.3081)",IN000205,Garrett City Police Dept,200 N Cowen St,Garrett,46738-1151, , ,1442, ,{09F4C0FD-DF85-49D2-9BF9-607A49845B2D},655865.1618,4579418.3081
"POINT (668141.6696 4290386.6083)",CO740183,Police Dept Of Vevay,210 Ferry St,Vevay,47043-1102, , ,1442,CountyApproved,{E6F5FF26-CCDF-4796-B720-912AE5E0B856},668141.6696,4290386.6083
"POINT (688607.0762 4301119.7352)",CO740185,Switzerland County Sheriff Satellite Ofc,2595 Main Street,Patriot,47038, , ,1442,CountyApproved,{EC2E5750-B7C7-49B8-8FB4-F3D3539D1BB4},688607.0762,4301119.7352
"POINT (527685.9515 4492897.7253)",IN000211,Delphi Police Dept,201 S Union St,Delphi,46923-1531, , ,1442, ,{9C498350-F33A-49D6-A138-831963CC9959},527685.9515,4492897.7253
"POINT (541347.1296 4459127.4065)",IN000213,Frankfort Police Dept,201 W Washington St,Frankfort,46041-1859, , ,1442, ,{7752A332-1037-4473-A27A-5AEC8828752A},541347.1296,4459127.4065
"POINT (666524.0532 4611258.2247)",IN000216,Angola Police Dept,202 W Gilmore St,Angola,46703-1414, , ,1442, ,{F7796B32-F89C-41DA-9A2D-866598CE2A7C},666524.0532,4611258.2247
"POINT (654503.9806 4511490.1902)",IN000219,Bluffton Police Dept,204 E Market St,Bluffton,46714-2197, , ,1442, ,{9B59B075-345A-47EF-A9BB-837A2625ABB8},654503.9806,4511490.1902
"POINT (612713.7624 4457642.271)",IN000220,Alexandria Police Dept,204 S Harrison St,Alexandria,46001-2422, , ,1442, ,{2771DC4B-91D7-4BD4-8DC2-2C405C75BCBC},612713.7624,4457642.271
"POINT (581567.0562 4543541.1132)",IN000221,Akron Police Dept,204 W Rochester St,Akron,46910-0000, , ,1442, ,{759E79DD-064A-43FC-9217-591C8BECCDF2},581567.0562,4543541.1132
"POINT (466341.7191 4358240.7129)",CO795582,Indiana State Police Post,7751 S US 41,Terre Haute,47802, , ,1442,County Approved,{400ECDDC-ED13-44D3-B765-FB28DBE2A898},466341.7191,4358240.7129
"POINT (464342.17 4368675.2705)",CO795579,Vigo County Sheriff's Dept,201 Cherry St,Terre Haute,47807-2940, , ,1442,County Approved,{5BC58676-0416-4EE0-A63F-D8264226D961},464342.17,4368675.2705
"POINT (465686.8668 4368714.706)",CO795578,Terre Haute Police Dept,1211 E Wabash Ave,Terre Haute,47807-3437, , ,1442,County Approved,{44ECF4B4-9F64-4BBF-8701-F48952FF90B8},465686.8668,4368714.706
"POINT (506633.1257 4474466.5396)",IN000224,Police Dept,205 S Intermural Dr,West Lafayette,47907-1677, , ,1442, ,{DF6062C3-E4F9-4100-B8ED-003541972728},506633.1257,4474466.5396
"POINT (546443.2182 4267643.0649)",CO659989,Orange County Sheriff,205 E Main St,Paoli,47454-1554, ,812-723-2417,1442, ,{4FF9AD7A-D6E8-4BCC-AFBD-6F95FCD30A16},546443.2182,4267643.0649
"POINT (679268.6907 4538133.6794)",IN000225,Monroeville Police Dept,205 W South St,Monroeville,46773-0000, , ,1442, ,{D3F5120C-DE53-4EBB-AD52-2ACA31BFE696},679268.6907,4538133.6794
"POINT (619948.8232 4441277.4613)",IN000227,Chesterfield Police Dept,207 E Main St,Chesterfield,46017-1336, , ,1442, ,{076EBD5C-DB56-409B-BE66-557C77B75F7E},619948.8232,4441277.4613
"POINT (583419.5467 4447729.7652)",IN000229,Arcadia Police Dept,208 W Main St,Arcadia,46030-0000, , ,1442, ,{04BB7215-EF7C-457A-BEED-1B4BF2830158},583419.5467,4447729.7652
"POINT (572475.9144 4403689.0107)",IN000230,Indianapolis Police Dept,209 E Saint Joseph St,Indianapolis,46202-3310, , ,1442, ,{065FDCB3-54A1-4DBB-AF8A-FF294A77D3D0},572475.9144,4403689.0107
"POINT (461340.1218 4368528.7317)",CO795580,West Terre Haute Police Dept,500 W National Ave,West Terre Haute,47885-1302, , ,1442,County Approved,{C13FB0CA-74A2-4A87-ADFB-FE3407E3599E},461340.1218,4368528.7317
"POINT (477022.0185 4371404.082)",CO795581,SEELYVILLE MARSHAL DEPT,PO BOX 249,SEELYVILLE,47878, , ,1442,County Approved,{18CFA234-AD99-4BBA-99C7-2AB993921A3B},477022.0185,4371404.082
"POINT (460791.1976 4223732.1163)",CO743045,Elberfeld Town Marshall,175 W Sycamore St,Elberfeld,47613, , ,1442,CountyApproved,{71D6B586-C831-4892-BD11-5922344E5E74},460791.1976,4223732.1163
"POINT (464443.9147 4200270.3257)",CO743043,Newburgh Town Police Dept,527 State St,Newburgh,47630-1230, , ,1442,CountyApproved,{15889E5B-4B7F-48EA-8EA8-791E94088671},464443.9147,4200270.3257
"POINT (632921.557 4583811.4915)",IN000235,Noble County Sheriff Office,210 S 7th St,Albion,46701-1413, , ,1442, ,{31F18CE4-BAB6-40E2-85AD-2BCBE6ED18C3},632921.557,4583811.4915
"POINT (662710.3008 4581241.5284)",IN000236,Auburn Police Dept,210 S Cedar St,Auburn,46706-2302, , ,1442, ,{5DE048ED-0784-472A-9B9C-78DBE86E09D8},662710.3008,4581241.5284
"POINT (528311.0359 4449334.9471)",IN000239,Colfax Town Marshall,210 W Main,Colfax,46035-0000, , ,1442, ,{610D3348-F948-418C-BD83-A7A52FDB9BE4},528311.0359,4449334.9471
"POINT (639573.5677 4466997.3593)",IN000241,Eaton Police Dept,211 W Harris St,Eaton,47338-9435, , ,1442, ,{ED2120EE-ABB6-46AB-B1E9-CF507C2A1742},639573.5677,4466997.3593
"POINT (649935.6377 4462529.552)",IN000242,Albany Police Dept,212 E State St,Albany,47320-1235, , ,1442, ,{AF78F6EE-D6B7-40E2-A998-39F5C9D9212A},649935.6377,4462529.552
"POINT (662793.6919 4581254.509)",IN000248,De Kalb County Sheriff,215 E 8th St,Auburn,46706-2393, , ,1442, ,{7A646D50-77DB-4E1C-95D6-15558DE1059A},662793.6919,4581254.509
"POINT (489658.5915 4215010.6997)",CO743047,Tennyson Town Marshall,112 N Main,Tennyson,47637, , ,1442,CountyApproved,{F736FAE5-8E40-4807-8F91-8EFB580C85AD},489658.5915,4215010.6997
"POINT (478195.1935 4210324.4171)",CO743041,Warrick County Sheriff Dept,100 W State Route 62,Boonville,47601-9196, , ,1442,CountyApproved,{0CE020F1-50D7-4D05-ABBA-B908FBA92366},478195.1935,4210324.4171
"POINT (604468.3278 4491887.6053)",IN798795,Sweetser Police Dept,113 N Main St,Sweetser,46987-0000, , ,250, ,{A5B76478-5E5B-4D58-B72E-8084918D6A58},604468.3278,4491887.6053
"POINT (671372.2251 4477702.3326)",IN000261,Sheriff Dept & Jail,224 W Water St,Portland,47371-2131, , ,1442, ,{44571C92-84D2-4396-B801-5190D122C4E2},671372.2251,4477702.3326
"POINT (468084.8015 4211056.7193)",CO743044,Chandler Police Dept,417 E Jefferson Ave,Chandler,47610-9763, , ,1442,CountyApproved,{87BEB671-94E4-4311-BAF8-184E6788A88B},468084.8015,4211056.7193
"POINT (475958.6055 4211272.7021)",CO743042,Boonville Police Dept,121 E Locust St,Boonville,47601-1837, , ,1442,CountyApproved,{8646039C-BEE7-4025-B86E-967E5F5253C4},475958.6055,4211272.7021
"POINT (534304.3808 4474118.0726)",IN000266,Rossville Police Dept,23 W Main St,Rossville,46065-9459, , ,1442, ,{AEAE4154-B148-40F6-8AA2-949CCD11152E},534304.3808,4474118.0726
"POINT (644921.6768 4589307.4576)",IN000271,Kendallville Police Dept,234 S Main St,Kendallville,46755-1718, , ,1442, ,{C409E31A-7639-4EE4-8E6D-D4E66832C5B7},644921.6768,4589307.4576
"POINT (473908.5752 4227811.4336)",CO743046,Lynnville Town Marshall,207 N Main St,Lynnville,47619, , ,1442,CountyApproved,{0FAEDC93-298C-4910-BA73-C5B867860E61},473908.5752,4227811.4336
"POINT (656464.3888 4408737.3646)",CO714060,Cambridge City Police Dept,127 N Foote St,Cambridge City,47327-1144, , ,1442,County Approved,{3375323A-1C1E-4634-B0EE-98BC91CE7C1E},656464.3888,4408737.3646
"POINT (671638.1762 4409462.2926)",CO714061,Centerville Police Dept,204 E Main St,Centerville,47330-1208, , ,1442,County Approved,{05017FF0-FDBA-4051-9AF0-28A9481FAEF1},671638.1762,4409462.2926
"POINT (512496.4596 4621344.4017)",IN000275,Long Beach Police Dept,2400 Oriole Trl,Michigan City,46360-1688, , ,1442, ,{ED894584-79EC-488B-B2DF-FDEE5F0A3C23},512496.4596,4621344.4017
"POINT (572804.2518 4406088.5779)",IN000276,Unity Park Police Dept,2420 Central Ave,Indianapolis,46205-4329, , ,1442, ,{8FFDA03A-66A1-4D5E-B654-43458EC7CD37},572804.2518,4406088.5779
"POINT (602053.6868 4423554.8426)",IN000277,Ingalls Police Dept,247 N Meridian St,Ingalls,46048-0000, , ,1442, ,{A3F579BD-E246-4EDA-95C8-A84EC6806136},602053.6868,4423554.8426
"POINT (510138.793 4477346.4403)",IN000281,Tippecanoe County Sheriff,2640 Duncan Rd,Lafayette,47904-1076, , ,1442, ,{6EFE0A3F-3B18-47A4-93F8-753E5EA99E24},510138.793,4477346.4403
"POINT (656891.6448 4468321.7863)",IN000285,Redkey Police Dept,28 S Oak,Redkey,47373-0000, , ,1442, ,{C678907D-43B6-4C4D-B099-CA7F0FE57AD4},656891.6448,4468321.7863
"POINT (680059.7583 4411011.8198)",CO714065,Richmond Police Dept,50 N 5th St,Richmond,47374-4247, , ,1442,County Approved,{2A702E5E-F94A-4514-92EA-CA4F0CB99809},680059.7583,4411011.8198
"POINT (574450.6064 4424344.0562)",IN000289,Carmel Police Dept,3 Civic Sq,Carmel,46032-2584, , ,1442, ,{BA5E98FC-EB51-43B4-8EAD-18E18DEBA170},574450.6064,4424344.0562
"POINT (508678.4967 4432269.5037)",IN000291,Crawfordsville Police Dept,300 E Pike St # 5,Crawfordsville,47933-2537, , ,1442, ,{B7C2A00E-0104-4D82-B5C8-D3188C209B23},508678.4967,4432269.5037
"POINT (637245.4731 4450700.5143)",IN000293,Muncie Police Chief's Office,300 N High St # 215,Muncie,47305-1639, , ,1442, ,{1F615956-A74E-4130-939E-5CE90D71149F},637245.4731,4450700.5143
"POINT (637245.4731 4450700.5143)",IN000294,Muncie Police-Victim Advocate,300 N High St Fl 2,Muncie,47305-1639, , ,1442, ,{A6065E52-3A9F-466C-96E3-C8635FD8D64C},637245.4731,4450700.5143
"POINT (637245.4731 4450700.5143)",IN000295,Muncie Police DEPT-Dare,300 N High St,Muncie,47305-1639, , ,1442, ,{3944BD46-D9C1-4BEE-8C70-A9437ABB9974},637245.4731,4450700.5143
"POINT (665437.0358 4588658.0979)",IN000296,Waterloo Police Dept,300 N Wayne St,Waterloo,46793-0000, , ,1442, ,{3201861A-A321-4DBC-A79F-09C30A7BD406},665437.0358,4588658.0979
"POINT (507970.403 4618581.2077)",IN000299,La Porte County Sheriff-Civil,300 Washington St # 112,Michigan City,46360-3311, , ,1442, ,{8DA58677-66AF-44EF-93D5-E4D10B935D4E},507970.403,4618581.2077
"POINT (677743.7343 4424892.546)",CO714063,Fountain City Police Dept,312 W Main St,Fountain City,47341-0000, , ,1442,County Approved,{AD67FC43-E64A-4A63-834B-15C5C6855B79},677743.7343,4424892.546
"POINT (679962.2762 4410824.053)",CO714062,Wayne County Criminal Court,301 E Main St,Richmond,47374-4200, , ,1442,County Approved,{A816F4AD-3BD7-4C3E-8D3E-6C92675421D1},679962.2762,4410824.053
"POINT (598562.2051 4619540.4407)",IN000301,Bristol Police Dept,301 E Vistula St,Bristol,46507-9489, , ,1442, ,{7F6DFC54-A70B-4F45-BD23-E13A7D7151C2},598562.2051,4619540.4407
"POINT (541693.499 4458906.2062)",IN000303,Clinton County Sheriff,301 E Walnut St,Frankfort,46041-2419, , ,1442, ,{04F5DC9E-DCE9-49E3-832B-6B3BB3EA9970},541693.499,4458906.2062
"POINT (583232.9659 4588290.8309)",IN000308,Nappanee Police Dept,301 W Lincoln St,Nappanee,46550-1950, , ,1442, ,{B9492291-EA49-4645-9A0A-084D97FF0AC6},583232.9659,4588290.8309
"POINT (635421.0426 4450683.1343)",IN000313,Ball State University Police,305 N College Ave,Muncie,47303-3401, , ,1442, ,{75E4C2E0-44C9-4F40-8DE5-00B83B294CC6},635421.0426,4450683.1343
"POINT (657188.9551 4419551.3161)",CO714064,Hagerstown Police Dept,49 E College St,Hagerstown,47346-1201, , ,1442,County Approved,{4AE0D1CD-86E2-4C36-9CD5-1C007485DE97},657188.9551,4419551.3161
"POINT (679942.0233 4410811.3599)",CO714066,Wayne County Sheriff,89 S 3rd St,Richmond,47374-4246, , ,1442,County Approved,{376C16D9-639B-41F2-859A-5D7029E5E1F7},679942.0233,4410811.3599
"POINT (636867.2126 4450288.3639)",IN000317,Muncie Police Dept,310 S Council St,Muncie,47305-2201, , ,1442, ,{24538BE8-F4B9-44D0-AC92-E517E48F279C},636867.2126,4450288.3639
"POINT (527376.7491 4492753.3889)",IN000318,Carroll County Sheriff,310 W Main St,Delphi,46923-1400, , ,1442, ,{CADAB235-2B4A-498F-B9D6-70559766E9A1},527376.7491,4492753.3889
"POINT (472899.6014 4496368.8739)",IN000320,Fowler Police Dept,311 E 5th St,Fowler,47944-1446, , ,1442, ,{D77081A6-6260-4EB6-87FA-86CF48BBA80C},472899.6014,4496368.8739
"POINT (675237.9385 4521680.8906)",IN000326,Adams County Sheriff's Dept,313 S 1st St,Decatur,46733-2022, , ,1442, ,{91F384D4-560B-46D3-B4D9-08FEC9AF2DE5},675237.9385,4521680.8906
"POINT (585405.3452 4615282.8917)",IN000327,Elkhart County Sheriff's Ofc,315 S 2nd St,Elkhart,46516-3138, , ,1442, ,{1872CCB4-C3D3-468C-A1BE-1F7A851EE9A6},585405.3452,4615282.8917
"POINT (657973.0719 4405756.8278)",CO714067,MILTON POLICE DEPT,113 E MAIN ST,MILTON,47357, , ,1442,County Approved,{B93EB2BF-6525-4846-A98F-39AB2F2765E5},657973.0719,4405756.8278
"POINT (653361.6819 4408449.1749)",CO714068,DUBLIN POLICE DEPT.,2250 E CUMBERLAND ST,DUBLIN,47335, , ,1442,County Approved,{03B4BC32-FC43-42E1-83FE-A18240A481CD},653361.6819,4408449.1749
"POINT (667266.2299 4417646.6822)",CO714069,GREENS FORK POLICE DEPT,12 S WATER ST,GREENS FORK,47345, , ,1442,County Approved,{F7F8CBDC-CAE9-48FA-930D-4E37387BF71D},667266.2299,4417646.6822
"POINT (647381.3499 4450433.9581)",IN000329,Selma Police Dept,316 S Albany,Selma,47383-0000, , ,1442, ,{5074B4C3-3D08-4088-80D9-F12FAA5148CF},647381.3499,4450433.9581
"POINT (671497.0924 4478068.3824)",IN000331,Portland Police Dept,319 N Meridian St,Portland,47371-1905, , ,1442, ,{89F973D6-289F-4FC2-9635-B3889C4C605A},671497.0924,4478068.3824
"POINT (581683.061 4407666.6286)",IN000332,Marion County Sheriff Academy,3229 N Shadeland Ave,Indianapolis,46226-6234, , ,1442, ,{5619E8A2-535B-42C3-93D9-378CAF7AB4BA},581683.061,4407666.6286
"POINT (632941.3966 4504702.3979)",IN798804,Warren Police Dept,108 E 2nd,Warren,46792-0000, , ,1442, ,{F22B61E9-3260-49B7-85CF-C4A21EFACAB1},632941.3966,4504702.3979
"POINT (578443.1257 4396687.052)",IN000335,Beech Grove Police Dept,340 Churchman Ave,Beech Grove,46107-2006, , ,1442, ,{799A334B-7FEB-4259-8885-902550E1E2BB},578443.1257,4396687.052
"POINT (607606.7335 4439783.2116)",IN000336,Edgewood Police Dept,3405 Nichol Ave,Anderson,46011-3060, , ,1442, ,{08900E64-BFAB-47DD-9C10-8607D51E710B},607606.7335,4439783.2116
"POINT (638798.6175 4454034.5326)",IN000340,Muncie Police Dept-Cop Shop,3500 N Broadway Ave,Muncie,47303-1309, , ,1442, ,{CF3DDBAF-63AA-438C-B001-DD179A12C0DA},638798.6175,4454034.5326
"POINT (615814.0895 4584572.6777)",IN000341,Cromwell Police Dept,353 Baker St,Cromwell,46732-0000, , ,1442, ,{C2C6D5E7-A2D3-46B5-A138-63D09B75D1E8},615814.0895,4584572.6777
"POINT (578259.8566 4273368.5713)",IN000348,Salem Police Dept,38 Public Sq,Salem,47167-2036, , ,1442, ,{53059103-DB97-4033-81DE-773980D99756},578259.8566,4273368.5713
"POINT (630161.221 4354769.584)",CO755996,Decatur County Sheriff Department,315 S Ireland St,Greensburg,47240-1548, ,812-663-8125,700,CountyApproved,{4804DA21-82A2-48B1-B864-A8DA383225F7},630161.221,4354769.584
"POINT (572040.2308 4401840.121)",IN000349,World Police & Fire Games,39 Jackson Pl # 300,Indianapolis,46225-1011, , ,1442, ,{128E7470-571B-4651-B949-7C8114FBB67F},572040.2308,4401840.121
"POINT (565004.9595 4340013.555)",IN000350,Brown County Sheriff,39 N Van Buren,Nashville,47448-0000, , ,1442, ,{DF802927-CD24-45DF-95E6-9B7F8E2CE677},565004.9595,4340013.555
"POINT (673972.3536 4599982.0949)",IN000351,Hamilton Police Dept,3930 E Church St,Hamilton,46742-0000, , ,1442, ,{306B4325-5AE6-4587-BE52-D4728AB4710A},673972.3536,4599982.0949
"POINT (583777.7176 4424040.1986)",IN000352,Fishers Police Dept Adm,4 Municipal Dr,Fishers,46038-1574, , ,1442, ,{278F1A2D-10CF-48C8-B2AF-3B268F5CC0FF},583777.7176,4424040.1986
"POINT (572575.9153 4402171.5035)",IN000353,Indianapolis Crime Lab,40 S Alabama St,Indianapolis,46204-3635, , ,1442, ,{1907A680-67DC-4E12-A667-6E1C214DE9BE},572575.9153,4402171.5035
"POINT (508010.6677 4432943.5968)",IN000362,Montgomery County Sheriff,412 Covington St,Crawfordsville,47933-1334, , ,1442, ,{1A7928ED-0E4E-4953-8269-BB1591DBB16E},508010.6677,4432943.5968
"POINT (608100.5772 4615588.063)",IN000367,Middlebury Police Dept,418 N Main St,Middlebury,46540-9216, , ,1442, ,{CEC2776C-42AE-4A68-8638-143B032D5D49},608100.5772,4615588.063
"POINT (573154.7497 4409548.4281)",IN000368,Police Dept,4209 N College Ave,Indianapolis,46205-1929, , ,1442, ,{036786C7-DE5B-4701-BADE-61ACD7B79B57},573154.7497,4409548.4281
"POINT (583422.8959 4410299.5046)",IN000371,Lawrence Police Dept,4455 Mccoy St,Lawrence,46226-3980, , ,1442, ,{D4763DAE-C883-48A0-8119-7BC66A3F6C0E},583422.8959,4410299.5046
"POINT (573946.8249 4394300.4311)",IN000378,Homecroft Police Dept,4820 Madison Ave,Indianapolis,46227-4152, , ,1442, ,{8DF8D017-D1F0-485C-94D6-D39223F8134E},573946.8249,4394300.4311
"POINT (572578.9437 4402394.6379)",IN000383,Indianapolis Police Dept,50 N Alabama St # E221,Indianapolis,46204-5305, , ,1442, ,{3A3B9ABE-7628-4FAB-B5EB-DB53FF66482B},572578.9437,4402394.6379
"POINT (630713.9776 4355070.8136)",CO755993,Decatur County Jail,119 E Railroad St,Greensburg,47240-2035, ,812-663-8125,1442,CountyApproved,{7337159C-FC92-495F-89E7-1E17F6719C6B},630713.9776,4355070.8136
"POINT (566399.239 4442947.8325)",IN000389,Sheridan Police Dept,506 S Main St,Sheridan,46069-1337, , ,1442, ,{5A1DE906-53C2-4527-8802-D0B41BD41F84},566399.239,4442947.8325
"POINT (654465.793 4527447.9945)",IN000390,Ossian City Police Dept,507 N Jefferson St,Ossian,46777-9763, , ,1442, ,{C393C5FA-6B96-405F-9B5A-3614478F2733},654465.793,4527447.9945
"POINT (674797.2237 4522547.9732)",IN000394,Police Dept,521 N 3rd St,Decatur,46733-1344, , ,1442, ,{A0CB3B88-5C7E-44BC-8822-CB85A8D4AD11},674797.2237,4522547.9732
"POINT (593314.7433 4339556.2742)",IN000397,Bartholomew County Fire Dept,543 2nd St,Columbus,47201-6713, , ,1442, ,{14693D5F-BE09-4EBD-9C19-882AF6F6D43A},593314.7433,4339556.2742
"POINT (551649.6405 4410507.438)",IN000399,Brownsburg Police Dept,55 E Main St,Brownsburg,46112-1213, , ,1442, ,{0E29064B-F56B-4101-A3EC-A97E067EFAD3},551649.6405,4410507.438
"POINT (568189.7808 4403085.8323)",IN000401,Indianapolis Police Dept,551 King Ave,Indianapolis,46222-3716, , ,1442, ,{9CD53225-0D66-4086-9AA1-A0C245B48802},568189.7808,4403085.8323
"POINT (593058.7259 4417316.4238)",IN000402,Mc Cordsvills Police Dept,5759 W Pendleton Pike,Mc Cordsville,46055-9592, , ,1442, ,{22A89B80-0FDB-4876-868E-060BFC7814CC},593058.7259,4417316.4238
"POINT (630598.5419 4355065.5466)",CO755992,Greensburg Police Dept,107 S Broadway St,Greensburg,47240-2004, ,812-663-3131,1442,CountyApproved,{169DA335-A464-4500-BAE1-19E7E09994CC},630598.5419,4355065.5466
"POINT (508263.2176 4431322.2869)",IN000405,Indiana State Police,5921 State Rd 43,Crawfordsville,47933-0000, , ,1442, ,{80D834BB-1CED-443B-B436-641A4F84ADDB},508263.2176,4431322.2869
"POINT (597827.7515 4603148.9488)",IN000408,Elkhart County Sheriff Dept,600 E Jackson St,Goshen,46526-4001, , ,1442, ,{423DFEE8-1E9C-4CC8-A228-C656D8552652},597827.7515,4603148.9488
"POINT (507110.0178 4477906.8274)",IN000412,West Lafayette Police Dept,609 W Navajo St # A,West Lafayette,47906-1997, , ,1442, ,{512ED4AF-4AB8-4294-91C3-9BD17428562D},507110.0178,4477906.8274
"POINT (671797.1919 4621955.37)",IN000413,Fremont Police Dept,6105 N Tolford St,Fremont,46737-0000, , ,1442, ,{FEA879D4-6B8B-4AF8-B50A-B8AC93794EB7},671797.1919,4621955.37
"POINT (637863.129 4450496.3464)",IN000414,Muncie Police Dept-Cop Shop,616 E Main St,Muncie,47305-2509, , ,1442, ,{8034437D-EF8C-4F31-9B7E-FDBDFE3D8F0A},637863.129,4450496.3464
"POINT (637435.226 4450005.5344)",IN000416,Police Horse Barn,620 S Mulberry St,Muncie,47305-2447, , ,1442, ,{15267F76-A7E3-4067-9FD1-5101BA2DB577},637435.226,4450005.5344
"POINT (623192.6459 4337203.1887)",CO755994,Westport Police Department,207 Johnson Ave,Westport,47283-0000, , ,1442,CountyApproved,{F322E2B7-A95F-476B-B9DE-17F1C129D0BF},623192.6459,4337203.1887
"POINT (519413.9899 4469298.4426)",IN000420,Dayton Police Department,6531 State Road 38 E,Lafayette,47905-7904, , ,1442, ,{CE46DEB1-20A7-4051-A455-D4793D3787B7},519413.9899,4469298.4426
"POINT (549070.5775 4401465.7029)",IN000421,Avon Police Dept,6570 E Us Highway 36,Avon,46123-9178, , ,1442, ,{6731A9A6-2A34-4995-A94B-5C0D3942B343},549070.5775,4401465.7029
"POINT (575389.2814 4391043.3487)",IN000423,Southport Police Dept,6901 Derbyshire Rd,Indianapolis,46227-5133, , ,1442, ,{55CCD3C0-10DA-4864-846D-18EF1E717E38},575389.2814,4391043.3487
"POINT (583927.9548 4442887.6009)",IN000425,Cicero Police Dept,70 S Byron St,Cicero,46034-0000, , ,1442, ,{76024604-8269-4C03-9647-02DC8CF03C91},583927.9548,4442887.6009
"POINT (612562.9514 4440622.3497)",IN000426,Anderson Police Traffic Div,700 Meridian Plz,Anderson,46016-1521, , ,1442, ,{B6EF38DB-9FB8-4729-B3CF-6A4A85D2C88B},612562.9514,4440622.3497
"POINT (612562.2754 4440667.8586)",IN000427,Anderson Police Detective Div,700 Meridian St,Anderson,46016-1521, , ,1442, ,{C9D85E03-A4BC-493B-AB5A-7ADC6B91528B},612562.2754,4440667.8586
"POINT (547619.213 4279535.8286)",CO659988,Orleans Police Dept,148 N Maple St,Orleans,47452-1424, ,812-865-2222,1442, ,{C69DAA00-4A70-4556-8153-29C03EF760EA},547619.213,4279535.8286
"POINT (606030.1039 4351211.2967)",IN000434,Hope Police Dept,711 Harrison St,Hope,47246-1013, , ,1442, ,{409F7D47-BB90-4062-B7F9-9D03759BAF1F},606030.1039,4351211.2967
"POINT (598917.3335 4421128.9454)",IN000435,Fortville Police Dept,714 E Broadway St,Fortville,46040-1550, , ,1442, ,{3DCB3DEA-89B9-4CD5-98D9-51F075F54D5F},598917.3335,4421128.9454
"POINT (656261.6929 4549311.7379)",IN000436,Allen County Sheriff-Civil Div,715 S Calhoun St # 100,Fort Wayne,46802-1816, , ,1442, ,{0F08A3A6-5C5A-4EB2-95CD-13A3E6EA6659},656261.6929,4549311.7379
"POINT (656261.6929 4549311.7379)",IN000437,Allen County Sheriff's Dept,715 S Calhoun St # 102,Fort Wayne,46802-1816, , ,1442, ,{E45E5EA2-36FE-43BD-8D25-8BE5AA54DB92},656261.6929,4549311.7379
"POINT (656261.6929 4549311.7379)",IN000438,Allen County Sheriff-Warrants,715 S Calhoun St,Fort Wayne,46802-1816, , ,1442, ,{E5EAA8DA-21A7-4453-9660-E92563677AA3},656261.6929,4549311.7379
"POINT (612761.1374 4440651.9413)",IN000439,Madison County Sheriff,720 Central Ave,Anderson,46016-1548, , ,1442, ,{589FAE65-F1A8-4A6E-8B5D-3B3BD43D376F},612761.1374,4440651.9413
"POINT (658749.3731 4541936.8331)",IN000445,Fort Wayne Police Schl Safety,7800 S Anthony Blvd,Fort Wayne,46816-2598, , ,1442, ,{2D47ADEE-0D94-46E8-ABA6-EF535FB486EB},658749.3731,4541936.8331
"POINT (522692.74 4196117.1182)",CO642845,Perry County Sheriff,119 S 7th St,Cannelton,47520-1209, , ,1442, ,{2D19EA29-C809-4BA9-9E3C-DD5B1F5EA505},522692.74,4196117.1182
"POINT (545478.2088 4412821.2992)",IN000449,Pittsboro Town Marshall,80 N Meridian St,Pittsboro,46167-0000, , ,1442, ,{2AE4DD2C-D563-4165-A834-A116576D084C},545478.2088,4412821.2992
"POINT (579224.7147 4272490.2542)",IN000452,Washington County Sheriff,801 Jackson St,Salem,47167-1218, , ,1442, ,{3302950C-E739-42FA-B121-F3A49DBBC1ED},579224.7147,4272490.2542
"POINT (523289.1531 4606519.7209)",IN000453,La Porte Police Dept,801 Michigan Ave,La Porte,46350-3568, , ,1442, ,{2B7DB097-E27F-4E3E-AE46-C47C7A8E7D9A},523289.1531,4606519.7209
"POINT (622949.2865 4441287.8066)",IN000455,Daleville-Salem Police Dept,8019 S Walnut St,Daleville,47334-0000, , ,1442, ,{828FF6EE-279E-4280-8B29-0F7B909AF634},622949.2865,4441287.8066
"POINT (523141.0881 4606701.3199)",IN000456,La Porte County Police-Sheriff,809 State St # 10,La Porte,46350-3390, , ,1442, ,{AC88DE4E-CC52-48CF-9C44-8B77013BA455},523141.0881,4606701.3199
"POINT (523141.0881 4606701.3199)",IN000457,Laporte County Sheriffs Dept,809 State St,La Porte,46350-3390, , ,1442, ,{6EBE6107-84B6-43B1-92CF-7A662B5DFDE6},523141.0881,4606701.3199
"POINT (666486.5884 4548442.9887)",IN000458,New Haven Police Dept,815 Lincoln Hwy E,New Haven,46774-1422, , ,1442, ,{1CE56868-B453-4E9B-9C63-F76F203BD94E},666486.5884,4548442.9887
"POINT (565999.679 4546356.5344)",IN000459,Crime Stoppers,815 Madison St,Rochester,46975-1628, , ,1442, ,{E0B0E431-A3EE-4464-8210-39F5F167E0FE},565999.679,4546356.5344
"POINT (517454.006 4205063.6505)",CO642848,Troy Town Marshall,Near Franklin & Spring,Troy, ,Marshall, ,1442,"Added by TPC, 10/27/05",{DD940DBF-495A-4FAC-8C00-2C1AF3F9081D},517454.006,4205063.6505
"POINT (575648.819 4418155.2724)",IN000461,Meridian Hills Police Dept,8455 Keystone Xing # 213,Indianapolis,46240-4356, , ,1442, ,{D0ED23FA-AC79-4E61-BB6A-BED3DD53D05C},575648.819,4418155.2724
"POINT (583140.1162 4418746.0413)",IN000464,Tactical Training Assoc,8709 Castle Park Dr,Indianapolis,46256-1272, , ,1442, ,{8A0DE7F2-56AA-4F2A-B87A-7D8620BCD007},583140.1162,4418746.0413
"POINT (584841.1071 4403937.9636)",IN000469,Indianapolis Police Training,901 N Post Rd,Indianapolis,46219-5545, , ,1442, ,{0344B2C9-42F3-4B73-ABC4-A718F01EF113},584841.1071,4403937.9636
"POINT (637353.2114 4451518.6031)",IN000471,Muncie Police Dept-Cop Shop,904 N Walnut St,Muncie,47305-1459, , ,1442, ,{44B4BDA0-A221-4762-BF5A-5EBBA12D89B3},637353.2114,4451518.6031
"POINT (558883.2567 4407127.7279)",IN000472,Clermont Police Dept,9051 Crawfordsville Rd,Clermont,46234-1517, , ,1442, ,{79456B61-F089-40AA-A560-C037FDE002CB},558883.2567,4407127.7279
"POINT (542513.3205 4401164.6334)",IN000475,Hendricks County Sheriff's Ofc,925 E Main St,Danville,46122-1945, , ,1442, ,{8B954492-4BAB-4337-B111-21C009ADD1A8},542513.3205,4401164.6334
"POINT (570361.2142 4411443.6222)",IN000476,Rocky Ripple Town Police Admin,930 W 54th St,Indianapolis,46208-2489, , ,1442, ,{5F0E23E7-B51E-4BFC-A08F-B37F1FB34C66},570361.2142,4411443.6222
"POINT (626350.614 4447262.7828)",IN000479,Yorktown Police Dept,9730 W Smith St,Yorktown,47396-1199, , ,1442, ,{241BBA80-1D23-4CF0-A699-4EDA58CD34C8},626350.614,4447262.7828
"POINT (626282.2298 4447226.1108)",IN000480,Yorktown Police Dept,9800 W Smith St,Yorktown,47396-1101, , ,1442, ,{F89E0D19-47FE-4F8B-969B-00B8C46EC5D9},626282.2298,4447226.1108
"POINT (581626.2543 4410103.6333)",IN000491,Lawrence Police Animal Control,Lawrence St,Lawrence,46226-0000, , ,1442, ,{F0447F87-261E-4AA8-A26C-73EC252C6967},581626.2543,4410103.6333
"POINT (658424.7749 4486762.8848)",IN000493,Pennville Police Dept,Pennville City Hall,Pennville,47369-0000, , ,1442, ,{1547DD9C-E8E4-498D-A97D-AD312B067A30},658424.7749,4486762.8848
"POINT (671200.635 4568967.6492)",IN000497,Allen County Sheriff,PO Box 45,Spencerville,46788-0045, , ,1442, ,{2B13210E-C4F0-4D6D-81CC-E42A028CD6D9},671200.635,4568967.6492
"POINT (574986.1457 4353109.6293)",IN000500,Princes Lake Police Dept,RR 1,Nineveh,46164-9801, , ,1442, ,{5950B93B-9D49-4216-BB9B-7E26A92247DD},574986.1457,4353109.6293
"POINT (520124.3059 4200377.611)",CO642847,Tell City Police,707 Mozart St,Tell City,47586-1711, , ,1442, ,{385F205E-46FB-45C6-AA0D-61C4CC944237},520124.3059,4200377.611
"POINT (522827.3753 4196065.3448)",CO642846,Cannelton City Police,210 S 8th,Cannelton,47520, , ,1442, ,{D0E02672-0A96-4568-8CA9-485F9352360D},522827.3753,4196065.3448
"POINT (568791.5518 4492301.2306)",IN798777,Galveston Police Dept,103 N Sycamore,Galveston,46932-0000, , ,500, ,{0DC2A021-3936-4055-838F-EC9AC62CBB4A},568791.5518,4492301.2306
"POINT (581471.4265 4459379.0193)",IN798884,Tipton County Sheriff,121 W Madison St,Tipton,46072-1833, , ,1442, ,{1B5488D8-1C28-4D0A-8538-791AA4401425},581471.4265,4459379.0193
"POINT (495964.6102 4192880.2379)",CO651235,Spencer County Sheriff,120 N 2nd St,Rockport,47635-1402, ,812-649-2286,1442, ,{6A1B5465-0449-412C-B386-DFD2C63ACB6A},495964.6102,4192880.2379
"POINT (495954.923 4192851.3957)",CO651236,Rockport Police Dept,201 Main St,Rockport,47635, ,812-649-2242,1442, ,{0986F21C-2EF0-4EED-9C5A-A48BC7A22FC5},495954.923,4192851.3957
"POINT (496848.7471 4207555.3588)",CO651237,Chrisney Town Marshall,PO Box 177,Chrisney,47611,Chrisney Town Marshall,812-362-8668,1442,"Added by TPC,10/21/05",{D69EF002-6DC1-4507-BE18-5F0BCF8D06E4},496848.7471,4207555.3588
"POINT (501150.1556 4224374.3201)",CO651238,Dale Town Marshall,103 N Wallace St,Dale,47523,Dale Town Marshall,812-937-2086,1442,"Added by TPC,10/21/05",{3F72BE54-E2A3-4AA3-A2C9-AA12D7CDF12A},501150.1556,4224374.3201
"POINT (496857.3286 4218423.2335)",CO651239,Gentryville Town Marshall, ,Gentryville,47537,Gentryville Town Marshall,812-937-2193,1442,"Added by TPC,10/21/05",{E94DC08B-A4A5-4C11-BB09-6F8FDDB38FE8},496857.3286,4218423.2335
"POINT (506846.6823 4219105.6573)",CO651240,Santa Claus Town Marshall, ,Santa Claus,47579,Santa Claus Town Marshall,812-937-2340,1442,"Added by TPC,10/21/05",{1D45530A-5B26-4015-A44C-81614AA9C48B},506846.6823,4219105.6573
"POINT (608181.9636 4243070.6386)",CO711146,Clarksville Police Dept,1970 Broadway St,Clarksville,47129-7760, , ,1442,CountyApproved,{F52E6C19-E760-4223-9C04-A5DBA2F286F9},608181.9636,4243070.6386
"POINT (610480.1257 4237393.807)",CO711149,Clark County Sheriff,501 E Court Ave # 159,Jeffersonville,47130-4091, , ,1442,CountyApproved,{8D304FBA-E7BA-4478-AAC4-B79B902F9812},610480.1257,4237393.807
"POINT (608670.794 4237468.0714)",CO711147,Clarksville Police Dept,230 E Montgomery Ave,Clarksville,47129-3236, , ,1442,CountyApproved,{B7738C38-0FE6-42C1-BFD5-D5875F874F05},608670.794,4237468.0714
"POINT (610136.5472 4238018.4022)",CO711148,Jeffersonville Police Dept,500 QUARTERMASTER CT,Jeffersonville,47130-4029, , ,1442,CountyApproved,{11CF2BF3-ADF5-4B10-81FA-701B9E9F9DE7},610136.5472,4238018.4022
"POINT (591807.3923 4258238.3428)",CO711151,BORDEN POLICE DEPT,111 W MAIN ST,BORDEN,47106, , ,1442,CountyApproved,{03E30DD6-9BE0-451E-B028-97789E13A3B5},591807.3923,4258238.3428
"POINT (616667.2152 4255762.8104)",CO711150,Charlestown Police Dept,701 Main St,Charlestown,47111-1217, , ,1442,CountyApproved,{53E10EAC-8BAB-4398-94A0-F0C46ACBA50A},616667.2152,4255762.8104
"POINT (608746.1679 4250692.9144)",CO711145,Sellersburg Police Dept,101 S NEW ALBANY STREET,Sellersburg,47172-1531, , ,1442,CountyApproved,{85064230-88A7-4975-A3AC-76BDDCEE359C},608746.1679,4250692.9144
"POINT (617753.0687 4244052.5165)",CO711152,UTICA POLICE DEPT,107 N 4TH ST,UTICA,47130, , ,1442,CountyApproved,{FC46740A-0117-4D42-AB6B-08BD4CB6E84E},617753.0687,4244052.5165
"POINT (676151.4454 4351204.271)",CO725780,St Leon Police Department,7582 Church Lane,St Leon,47012, ,(812)576-5366,1442,County Approved,{2DA1DCBA-A76D-4922-AD32-3FD817350CA0},676151.4454,4351204.271
"POINT (667970.1666 4320694.8316)",CO725774,Dillsboro Police Dept,13030 EXECUTIVE DR,Dillsboro,47018-9303, ,(812)432-3033,1442,County Approved,{F33D5F62-DF8A-4E92-9C11-22ADE37DD952},667970.1666,4320694.8316
"POINT (685859.5638 4329073.4574)",CO725777,Dearborn County Sheriff's Ofc,301 W High St,Lawrenceburg,47025-1911, , ,1442,County Approved,{9F208BF7-3636-40B9-BF72-5025E95DDE1C},685859.5638,4329073.4574
"POINT (665182.2415 4331023.107)",CO725781,Moores Hill Police Dept, ,Moores Hill, , , ,1442,County Approved,{68301B76-6348-4382-A9EE-A86D52E12A75},665182.2415,4331023.107
"POINT (684716.3996 4330984.3196)",CO725779,Greendale Police Dept,480 Ludlow St,Lawrenceburg,47025-1533, , ,1442,County Approved,{C0E83BF8-7334-4574-89E0-8373126A86F8},684716.3996,4330984.3196
"POINT (685841.9049 4329490.5918)",CO725778,Lawrenceburg Police Dept,349 Walnut St,Lawrenceburg,47025-1841, , ,1442,County Approved,{2FF58BCF-34EB-4284-89E2-CB4A486B9B29},685841.9049,4329490.5918
"POINT (684871.1155 4342716.1395)",CO725782,Dearborn County Sheriff's Office,23759 Brightwood Dr,Lawrenceburg,47025, , ,1442,County Approved,{6564105C-0D2B-456F-916A-48F1042955DF},684871.1155,4342716.1395
"POINT (664926.5158 4330966.6537)",CO725775,Dearborn County Sheriff's Ofc,14687 Main St,Moores Hill,47032-9162, , ,1442,County Approved,{44CBA644-2434-4491-83F7-5743E335BAAB},664926.5158,4330966.6537
"POINT (681677.2169 4325061.1941)",CO725776,Aurora Police Dept,233 MAIN ST,Aurora,47001-1308, , ,1442,County Approved,{2791E594-3678-41F9-A1FE-7EB06384901F},681677.2169,4325061.1941
"POINT (686857.86 4336027.9364)",CO725783,Hidden Valley Lake Rangers,19325 Schmarr Dr,Lawrenceburg,47025, , ,1442,County Approved,{FDEEB0FD-B025-4533-92C4-0087FDD203BA},686857.86,4336027.9364
"POINT (671068.2474 4365048.3248)",CO758470,Franklin County Sheriff,371 Main St,Brookville,47012-1363, ,7656474138,1442,County Approved,{4F06C5A9-50E5-4FDA-B809-40D58E4BB11A},671068.2474,4365048.3248
"POINT (654709.2463 4355930.2069)",CO758473,Oldenburg Police Dept,Water Street,Oldenburg,47036-0085, , ,1442,County Approved,{DA4C8813-98B3-496E-B466-004ED8C77788},654709.2463,4355930.2069
"POINT (671063.9579 4365164.8286)",CO758471,Brookville Police Dept,462 Main St,Brookville,47012-1406, ,7656474178,1442,County Approved,{DD53C5C4-BCB1-496E-B056-410122334A32},671063.9579,4365164.8286
"POINT (655322.1096 4374704.9934)",CO758472,Laurel City Police Station,Pearl,Laurel,47024-0000, , ,1442,County Approved,{2C9B7F46-BE72-4B1A-8695-F3973C49983D},655322.1096,4374704.9934
"POINT (456827.5621 4202821.2029)",CO785426,Evansville Police East Sector Office,4900 Shamrock Dr Suite 105,Evansville,47715-2219, , ,1442,County Approved,{6BC81904-75F2-4429-A1EB-9767D132244E},456827.5621,4202821.2029
"POINT (457958.6524 4213179.7403)",CO785427,Vanderburgh County Sheriff,5600 Kansas Rd,Evansville,47725-7600, , ,1442,County Approved,{9885EE0F-8289-4B76-9286-E3304519C07A},457958.6524,4213179.7403
"POINT (450499.2544 4204156.3627)",CO785428,Evansville Police West Sector Office,619 N Main St,Evansville,47711-5421, , ,1442,County Approved,{0B675850-0468-4659-8B89-437C459EE9D8},450499.2544,4204156.3627
"POINT (452410.5923 4207232.9468)",CO785429,Vanderburgh Sheriff Headquarters,3500 N. Harlan Ave,Evansville,47711, , ,1442,County Approved,{A1673D6C-772F-43DD-96C7-8CDE8842C406},452410.5923,4207232.9468
"POINT (452770.4563 4209497.7174)",CO785430,Vanderburgh Sheriff Command Post,5607 North Highway 41,Evansville,47711, , ,1442,County Approved,{96DC79B0-502E-4B11-96C6-3EEF51670423},452770.4563,4209497.7174
"POINT (450747.2663 4201152.3726)",CO785425,Evansville Police South Sector Office,315 Taylor Av,Evansville,47713-1309, , ,1442,County Approved,{1B1E775C-1555-4574-B6D9-DFECD69C36A5},450747.2663,4201152.3726
"POINT (450131.5704 4203051.245)",CO785424,Evansville Police Central Office,1 NW Martin Luther King Jr. Blvd,Evansville,47708, , ,1442,County Approved,{E3EBDC5B-6B18-4995-8499-729C3942A71B},450131.5704,4203051.245
"POINT (449295.7364 4205088.0144)",CO785431,Vanderburgh Sheriff Community Correction,1505 North Third Ave.,Evansville,47711, , ,1442,County Approved,{D5DC7669-996E-486C-B638-65FBBE528E50},449295.7364,4205088.0144
"POINT (501907.0792 4329698.416)",CO752576,Worthington City Police Dept,225 S Commercial St,Worthington,47471-1704,"Dennis Conway, Marshall", ,700,County Approved,{A4240268-295A-42C5-A768-B898FA688CE9},501907.0792,4329698.416
"POINT (482695.3878 4334819.8588)",CO752575,Jasonville Police Dept,145 S Lawton St,Jasonville,47438-1404,"Rick VanHorn, Chief", ,500,County Approved,{1001C569-434C-44EB-8498-EC1843A3A733},482695.3878,4334819.8588
"POINT (505349.3422 4319765.7479)",CO752574,Bloomfield Police Dept,12 E Main St,Bloomfield,47424-1418,"Tom Franklin, Marshall", ,209,County Approved,{D249FFE7-CCA1-414C-A512-0C97283EC3FB},505349.3422,4319765.7479
"POINT (485560.1112 4320653.8481)",CO752577,Linton Police Dept,190 A St NW,Linton,47441-1727,"Troy Jerrels, Chief", ,100,County Approved,{58452C1E-7F65-47A1-9ED1-C795D8ED66AD},485560.1112,4320653.8481
"POINT (506209.9288 4319524.4613)",CO752578,Greene County Sheriff Dept,204 CR 70E,Bloomfield,47424-0000,Terry Pierce, ,5000,County Approved,{FC34780D-FBD9-48F3-A2DF-84BDCE929372},506209.9288,4319524.4613
"POINT (492993.6185 4315532.3815)",CO752579,Lyons Police Department,150 E Broad St,Lyons,47443,"Ron Sparks, Chief", ,200,County Approved,{C0998932-48DA-4AFD-9C80-C5441BDD5380},492993.6185,4315532.3815
"POINT (624906.3317 4434775.8142)",CO755573,Middletown Police Dept,653 Locust St,Middletown,47356-1436, , ,1442,COUNTY_APPROVED,{9E2C9A7A-24E1-4D68-8918-7236D3C8756F},624906.3317,4434775.8142
"POINT (632665.8212 4429433.5668)",CO755574,SULPHUR SPRINGS POLICE, ,SULPHUR SPRINGS,47388, , ,1442,COUNTY_APPROVED,{5FA6B945-1F32-4A8A-9BA9-B6382BFB34F8},632665.8212,4429433.5668
"POINT (621679.3852 4416826.3256)",CO755570,Shirley Police Dept,212 S Main St,Shirley,47384-9687, , ,1442,COUNTY_APPROVED,{DD4B5E33-CBB4-4C40-BD93-EF1892444F23},621679.3852,4416826.3256
"POINT (633582.5857 4410996.4063)",CO755569,Spiceland Police Dept,130 E Main St,Spiceland,47385-0000, , ,1442,COUNTY_APPROVED,{1FDDC6F6-F4B1-40D4-88EB-8FF8C753F2F8},633582.5857,4410996.4063
"POINT (639092.7789 4421490.6099)",CO755568,Henry County Sheriff,127 N 12th St,New Castle,47362-4524, ,7655295201,1442,COUNTY_APPROVED,{FC834E91-EB95-4DF5-9D0E-0128C8064CCF},639092.7789,4421490.6099
"POINT (649309.6496 4429334.5807)",CO755567,Mooreland Police Dept,101 E Charles St,Mooreland,47360-0000, ,7657665056,1442,COUNTY_APPROVED,{15D32BC3-74F4-42B0-80A7-18131D8005DF},649309.6496,4429334.5807
"POINT (626288.2897 4406033.0044)",CO755572,Knightstown Police Dept,24 S Washington St,Knightstown,46148-1277, , ,1442,COUNTY_APPROVED,{E67D6330-02D6-4582-8795-61516F364EBC},626288.2897,4406033.0044
"POINT (639463.386 4421417.4348)",CO755566,Detective Investigation,BROAD ST,New Castle,47362-0000, , ,1442,COUNTY_APPROVED,{C376764B-2E82-4A6F-AC17-B8BB6590F2D6},639463.386,4421417.4348
"POINT (639197.2378 4421574.6812)",CO755571,New Castle City Police Dept,227 N Main St,New Castle,47362-4241, , ,1442,COUNTY_APPROVED,{DF64B2EC-59BF-440E-9C26-468E79375472},639197.2378,4421574.6812
"POINT (620526.7287 4316069.5573)",CO704648,Jennings County Sheriff,Corner Of Brown St & Perry St,Vernon,47282-0000, , ,1442,CountyApproved,{D52030DF-E44F-48FD-81AC-7E2E2BFEB29A},620526.7287,4316069.5573
"POINT (619033.6036 4318391.2631)",CO704647,North Vernon Police Department,101 Madison Ave,North Vernon,47265-0000, , ,1442,CountyApproved,{E0DBC85D-64F8-4953-9626-16C5640CF857},619033.6036,4318391.2631
"POINT (461748.928 4302556.0637)",CO791338,Oaktown Police Dept,100 Broadway,Oaktown,47561, , ,1442,County Approved,{AD5A05F8-8D2E-4088-AAA5-92EFF3E00F2F},461748.928,4302556.0637
"POINT (454202.8451 4280931.1454)",CO791335,Knox County Sheriff's Office,135 N 8th St,Vincennes,47591-2917, , ,1442,County Approved,{6F746DC1-A723-454D-9770-95A31B48D4FC},454202.8451,4280931.1454
"POINT (473317.0162 4291694.6839)",CO791337,Bicknell Police Dept,119 E 2nd St,Bicknell,47512, , ,1442,County Approved,{4C2A60D0-C983-462B-B182-E9CD56A08184},473317.0162,4291694.6839
"POINT (453977.9293 4281148.831)",CO791336,Vincennes City Police Dept,501 Busseron St,Vincennes,47591-2917, , ,1442,County Approved,{5601D5B4-A2D3-4AC4-AD53-75750A42413B},453977.9293,4281148.831
"POINT (517708.298 4280136.874)",CO731256,Martin County Sheriff and Jail,Capital Ave,Shoals,47581-0000, , ,1442,CountyApproved,{31B74419-A1FD-47F8-B33E-C79276449CF5},517708.298,4280136.874
"POINT (517996.3289 4279714.7402)",CO731257,Shoals Town Marshall,201 Water Street,Shoals,47581-0000, , ,1442,CountyApproved,{A8347DE9-E77F-4D61-8157-7F037D839956},517996.3289,4279714.7402
"POINT (507316.9231 4281130.3558)",CO731255,Loogootee Police Dept,401 N John F Kennedy Ave,Loogootee,47553-1220, , ,1442,CountyApproved,{F89C9622-32CB-4854-873A-571B0FC5F01B},507316.9231,4281130.3558
"POINT (685879.6138 4312991.7311)",CO702404,Rising Sun Police Dept,300 S Poplar St,Rising Sun,47040-1257, , ,2000,County Approved,{E7949B23-06A8-41B6-ADA8-AD7E3A0027FD},685879.6138,4312991.7311
"POINT (685741.3671 4313412.6809)",CO702403,Ohio County Sheriff,123 S Mulberry St,Rising Sun,47040-1117, , ,2000,County Approved,{6201103D-034F-4613-9D81-259EB189E575},685741.3671,4313412.6809
"POINT (480709.6478 4401401.8544)",CO760106,Crime Victims Advocate,217 E Ohio St,Rockville,47872-1830, , ,1442,CountyApproved,{C5147602-341E-4E1F-93CC-34906FAF33C5},480709.6478,4401401.8544
"POINT (480441.4598 4401368.1275)",CO760107,Parke County Sheriff's Dept,458 W Strawberry Rd,Rockville,47872, , ,1442,CountyApproved,{F311B9D8-5AA9-47CE-81FF-9157832D32F1},480441.4598,4401368.1275
"POINT (480543.388 4401029.3596)",CO760105,Rockville Police Dept,416 S Jefferson St,Rockville,47872-1748, , ,1442,CountyApproved,{3B52F514-A03A-4E57-9D80-36B1D1BBDA28},480543.388,4401029.3596
"POINT (468316.4081 4404808.1851)",CO760108,Montezuma Police Department,272 E Crawford St,Montezuma,47862, , ,1442,CountyApproved,{5B590534-2717-466D-A515-D64F4145D10D},468316.4081,4404808.1851
"POINT (475686.3168 4386062.3671)",CO760109,Rosedale Police Dept,130 N Main St,Rosedale,47874, , ,1442,CountyApproved,{0AC401C4-9EFC-41BB-905F-0BFA42218A31},475686.3168,4386062.3671
"POINT (675760.0186 4435164.1897)",CO723396,Lynn Police Dept,101 S Main,Lynn,47355-0000, , ,1442,County Approved,{1B1C68C3-A0E0-4724-90AB-39F81EC88EA6},675760.0186,4435164.1897
"POINT (659406.8657 4450299.4271)",CO723397,Farmland Police Dept,106 E Henry St,Farmland,47340-0000, , ,1442,County Approved,{85179F61-7246-428D-8714-DD743B17FDFF},659406.8657,4450299.4271
"POINT (671960.7746 4448659.9952)",CO723399,Randolph County Sheriff's Ofc,115 E South St,Winchester,47394-2133, , ,1442,County Approved,{D496F2D4-3AF4-4A5C-A586-218E1FD697FD},671960.7746,4448659.9952
"POINT (652840.6768 4450201.5091)",CO723400,Parker City Police Dept,147 W Washington St,Parker City,47368-0000, , ,1442,County Approved,{04F5EBD0-11F2-495B-8A89-AE8A52E4113E},652840.6768,4450201.5091
"POINT (686539.0194 4452099.1063)",CO723401,Indiana Police Dept,309 W Pearl St,Union City,47390-1445, , ,1442,County Approved,{CF55C826-2891-4F02-8572-4372845EE9C3},686539.0194,4452099.1063
"POINT (667506.3557 4461630.6797)",CO723402,Ridgeville Police Dept,City Bldg,Ridgeville,47380-0000, , ,1442,County Approved,{AE60716B-3027-43CD-92F2-E61587ABC175},667506.3557,4461630.6797
"POINT (671859.5267 4448878.7074)",CO723398,Winchester Police Dept,113 E Washington St,Winchester,47394-1801, , ,1442,County Approved,{35FEE717-79A1-4B48-9221-EDBFFA84FEAE},671859.5267,4448878.7074
"POINT (677781.5712 4389332.2124)",CO790351,Liberty City Police Station,1 S Fairground St,Liberty,47353-1447, , ,1442, ,{B448D17D-2C06-4F67-913B-BD26DE541375},677781.5712,4389332.2124
"POINT (677852.4965 4389347.1761)",CO790352,Union County Sheriff Dept,106 E Union St,Liberty,47353-1438, , ,1442, ,{DE1FB4A3-D815-4E58-A74E-54585B6F7353},677852.4965,4389347.1761
"POINT (465014.4189 4411627.3219)",CO790749,Vermillion County Sheriff,1888 State Road 63,Newport,47966-0000, , ,1442,CountyApproved,{D6ECE12A-E486-4610-9294-6CB07FF2DF0D},465014.4189,4411627.3219
"POINT (459787.8314 4421071.7961)",CO790751,Cayuga Town Marshall,E Curtis St,Cayuga,47928-0000, , ,1442,CountyApproved,{5770BA47-5F66-423C-B5AB-DC6671BCC4C5},459787.8314,4421071.7961
"POINT (462668.0313 4434135.5048)",CO790754,Perrysville Town Marshall,496 W Walnut,"Perrysville
", , , ,1442,CountyApproved,{AD1BAF5D-6994-4ED8-9829-D9A40D245D2C},462668.0313,4434135.5048
"POINT (457769.0998 4406092.1464)",CO790753,Dana Town Marshall,106 E Dogwood,Dana,47847, , ,1442,CountyApproved,{97211FF6-E349-45D2-B1AF-792B208F7408},457769.0998,4406092.1464
"POINT (465274.1019 4392435.1097)",CO790752,Fairview Town Marshall,383 S Jackson St,Clinton,47842, , ,1442,CountyApproved,{FAD9D9E6-6D1E-4622-990E-C629318BD6F1},465274.1019,4392435.1097
"POINT (465733.9971 4390175.5804)",CO790750,Clinton Police Dept,259 Vine St,Clinton,47842-2160, , ,1442,CountyApproved,{1A49FE56-4855-4F01-8AA4-069FAC60A3DF},465733.9971,4390175.5804
"POINT (600714.6184 4294729.8524)",IN798759,Crothersville Police Dept,101 W Howard St,Crothersville,47229-1523, , ,154.72,COUNTY_APPROVED,{3877D30B-53DC-40D4-B87F-1556D059B851},600714.6184,4294729.8524
"POINT (583599.1595 4303288.9316)",IN798760,Jackson County Sheriff,150 E State Road 250,Brownstown,47220-2000, , ,1442,COUNTY_APPROVED,{7E5A0B9B-AFF0-4158-BAF8-6378F5C19EB7},583599.1595,4303288.9316
"POINT (582974.0745 4303827.2894)",IN798761,Brownstown Police Dept,200 W Walnut St,Brownstown,47220-1445, , ,1442,COUNTY_APPROVED,{11F41D89-B711-4667-B377-AC04979B6AED},582974.0745,4303827.2894
"POINT (596077.6508 4312932.3903)",IN798762,Seymour Police Dept,220 N Chestnut St,Seymour,47274-2104, , ,1604.84,COUNTY_APPROVED,{A899EFAC-05A7-4F1F-A0CF-CF17C6D4C429},596077.6508,4312932.3903
"POINT (572047.7903 4297751.8153)",IN798763,Medora Town Marshall,27 N Perry,Medora,47260-0000, , ,1442,COUNTY_APPROVED,{7DB3D78A-D910-4951-908B-DA01380069F7},572047.7903,4297751.8153
"POINT (600524.3837 4313110.9666)",IN798764,Seymour Police Dept Sub Stn,357 Tanger Blvd,Seymour,47274-4401, , ,1442,COUNTY_APPROVED,{657244A0-204F-489F-93FF-7E2AA5A43E6A},600524.3837,4313110.9666
"POINT (600384.3184 4312404.3785)",IN798765,Indiana State Excise Police,651 S Frontage Rd,Seymour,47274-0000, , ,1442,COUNTY_APPROVED,{315740E8-8DC7-4825-801C-EE68A6E025DC},600384.3184,4312404.3785
"POINT (597146.1895 4312786.7499)",IN798766,Indiana State Police Post Dist 43,721 E Tipton St,Seymour,47274-3521, , ,499.58,COUNTY_APPROVED,{5E8E2430-A678-4CEC-9050-E58A6A181DD1},597146.1895,4312786.7499
"POINT (645364.9762 4490730.5281)",IN798767,Montpelier Police Dept,405 W Huntington St,Montpelier,47359-1007,Jerry Brown, ,1442, ,{67FBE714-A79E-4B1B-8D42-8260BC762895},645364.9762,4490730.5281
"POINT (646086.0392 4479184.2821)",IN798768,Blackford County Sheriff's Department,64 N 500 E,Hartford City,47348-9248,John Lancaster, ,1442, ,{5DE29A84-5691-4F88-8C36-CEDF5E756CC3},646086.0392,4479184.2821
"POINT (638253.5566 4479734.0089)",IN798769,Hartford City Police,700 N Walnut St,Hartford City,47348-1548,Matt Felver, ,1442, ,{24132CC3-C60C-47C0-B754-1DB4352C3497},638253.5566,4479734.0089
"POINT (533504.3966 4442171.4213)",IN798770,Thorntown Police Department,101 W Main St,Thorntown,46071-1127,Matt Hankins,(765) 436-7677,1442, ,{821759A1-2192-4890-927F-EC60E61EDD59},533504.3966,4442171.4213
"POINT (561972.5327 4422207.7091)",IN798771,Zionsville Police Dept,1075 Parkway Dr,Zionsville,46077-1951,Richard Dowden,(317) 873-8029,1442, ,{B6FDE758-0190-451D-9E7B-274FBDFA02E1},561972.5327,4422207.7091
"POINT (545496.9682 4433146.6646)",IN798772,Lebanon Police Dept,201 E Main St,Lebanon,46052-2686,Tom Garoffolo,(765) 482-8836,1442, ,{32D82B2B-FF05-45C8-8E9F-6E740409F940},545496.9682,4433146.6646
"POINT (546962.9826 4431550.5832)",IN798773,Boone County Sheriff,1905 Indianapolis Ave,Lebanon,46052-2938,Ken Campbell,(765) 482-1412,1442, ,{8D4873E8-8362-4387-8690-006B968A0202},546962.9826,4431550.5832
"POINT (555848.3628 4427632.5268)",IN798774,Whitestown Police Department,7 S Main Street,Whitestown,46075,Dennis Anderson,(317) 769-2677,1803,Added by Polis,{95E013AF-AFE0-4D20-A545-8A2F76BE7435},555848.3628,4427632.5268
"POINT (532428.3055 4427399.0026)",IN798775,Advance Police Department,112 North Main Street,Advance,46147,Jerry Parsley, ,1803,Added by Polis,{5AA74227-7102-4EBE-A573-B964A58C5CB5},532428.3055,4427399.0026
"POINT (532128.1941 4419409.6461)",IN798776,Jamestown Police Department,421 East Main Street,Jamestown,46147,Dennis Isenhower, ,1803,Added by Polis,{CB15E6FC-28B2-4DCC-8CF6-AC60CBC2C76E},532128.1941,4419409.6461
"POINT (553446.3771 4511780.8601)",IN798778,Cass County Sheriff's Office,100 Court Park,Logansport,46947-0000, , ,25000, ,{75A522EB-7D19-4691-A310-69B4B95B096B},553446.3771,4511780.8601
"POINT (553810.1739 4511670.2618)",IN798779,Logansport Police Chief,601 E Broadway,Logansport,46947-3156, , ,15000, ,{E289738C-136D-4F5F-882B-56F2EF5CA9CA},553810.1739,4511670.2618
"POINT (542236.019 4523882.9393)",IN798781,Royal Center Police,104 E North Street,Royal Center,46978, , ,1000, ,{31EA5B83-2FA8-4915-9104-F3676DC21934},542236.019,4523882.9393
"POINT (505363.3507 4251119.0085)",IN798782,Indiana State Police-District 34,2209 Newton St,Jasper,47546-1502,Lt. Don Bolen, ,1442, ,{D8EF2A77-53C0-43B7-B461-917C39A1C7E0},505363.3507,4251119.0085
"POINT (506290.8577 4248508.7985)",IN798783,Dubois County Sheriff Department,255 Brucke Strasse,Jasper,47546-3400,Terry Tanner, ,1442, ,{ECD1C419-BB3F-4A21-82FA-13A1CC4E9B70},506290.8577,4248508.7985
"POINT (506257.9864 4249225.5714)",IN798784,Jasper Police Dept,309 E Sixth St,Jasper,47546-2916,Doug Tarvin, ,1442, ,{28ACE1BE-CB69-4F75-9442-BFAE0DFAEC9A},506257.9864,4249225.5714
"POINT (504103.1081 4238126.1087)",IN798785,Huntingburg Police Dept,503 E First St,Huntingburg,47542-1348,Ron Drew, ,1442, ,{AF9F068D-CF77-45A7-9709-1B5016AE8AB3},504103.1081,4238126.1087
"POINT (511922.9332 4230321.3588)",IN798786,Ferdinand Police Department,123 W 5th St,Ferdinand, ,Ted Bieker, ,1803, ,{334828B4-E52E-4241-9FC4-E8D4970ED76A},511922.9332,4230321.3588
"POINT (526535.9382 4240982.5406)",IN798787,Birdseye Police Department,103 W ST RD 64,Birdseye, ,Robert Jenkins, ,1803, ,{95C75529-C442-44CC-98F4-BB6268BE857C},526535.9382,4240982.5406
"POINT (496474.5082 4233141.639)",IN798788,Holland Police Department,505 W Main Street,Holland, ,Josh Hemmer, ,1803, ,{DAF231D6-B265-4C11-AAC4-F50FEA96BF58},496474.5082,4233141.639
"POINT (486346.6831 4439613.3907)",IN798789,Hillsboro Town Marshall,100 W Main St,Hillsboro,47949-8111, , ,1442, ,{972E9C42-675E-4AB4-8E3F-CCFCB127B06D},486346.6831,4439613.3907
"POINT (465885.7967 4444113.2363)",IN798790,Covington Police Dept,1329 2nd St,Covington,47932-1009, , ,1442, ,{936DD64D-F81A-468E-9DD5-53BC3E171928},465885.7967,4444113.2363
"POINT (479008.1105 4460263.0384)",IN798791,Attica Police Dept,200 S Mcdonald St,Attica,47918-1410, , ,1442, ,{934118F6-EB24-443E-9947-8E57B3EA4CD7},479008.1105,4460263.0384
"POINT (466108.3826 4442841.3367)",IN798792,Fountain County Sheriff,216 Union St,Covington,47932-1248, , ,1442, ,{F042C5C4-D077-42B1-B77D-AD964734D420},466108.3826,4442841.3367
"POINT (477616.8515 4440193.5494)",IN798793,Veedersburg PD,100 S Main St,Veedersburg,47987, , ,1803, ,{A59EA039-1869-4227-9984-D5428F072890},477616.8515,4440193.5494
"POINT (476164.8525 4424203.9859)",IN798794,Kingman Town Marshall,Kingman Town Hall,Kingman,47952, , ,1803, ,{0C640F81-7FB7-4F58-AB2E-0F90AE63378C},476164.8525,4424203.9859
"POINT (626471.0033 4498252.2849)",IN798796,Van Buren Police Dept,205 N 1st St,Van Buren,46991-0000, , ,200, ,{BB7AB841-A61D-484F-8BAB-8523A15DAE6B},626471.0033,4498252.2849
"POINT (617582.1132 4482819.4044)",IN798797,Gas City Police Dept,211 E Main St,Gas City,46933-1457, , ,1000, ,{966AADEE-A03B-423E-80C1-BE4589E1423F},617582.1132,4482819.4044
"POINT (613467.5366 4490717.8461)",IN798798,Swayzee Police Dept,213 S Washington,Swayzee,46986-0000, , ,750, ,{BCD928FA-5815-4F1A-83FF-787FE57F2D41},613467.5366,4490717.8461
"POINT (613602.4676 4490532.2568)",IN798799,Grant County Sheriff,214 E 4th St,Marion,46952-4026, , ,50000, ,{7C385AA5-F0E2-41F4-8D14-3CAAAEF33EDF},613602.4676,4490532.2568
"POINT (614315.2432 4474745.7392)",IN798800,Fairmount Police Dept,214 W Washington St,Fairmount,46928-1968, , ,1442, ,{64C20E8A-4846-479E-A6B1-306893EAFFE0},614315.2432,4474745.7392
"POINT (613708.7395 4490616.0395)",IN798801,Marion Police Traffic Div,301 S Branson St,Marion,46952-4052, , ,1442, ,{FA00328F-7C2E-441D-BBEB-94B408AB7208},613708.7395,4490616.0395
"POINT (616318.703 4482183.4191)",IN798802,Jonesboro Police Dept,414 S Main St,Jonesboro,46938-1115, , ,1442, ,{C30B04B1-02B3-4381-A112-F07611F5C26C},616318.703,4482183.4191
"POINT (627634.3494 4481516.3166)",IN798803,Upland Police Dept,87 N Main St,Upland,46989-0458, , ,360, ,{AAE79741-AF4B-4B72-AE7C-BDE76D7E87A5},627634.3494,4481516.3166
"POINT (636905.8938 4535816.443)",IN798805,Roanoke Police Dept,126 N Main St,Roanoke,46783-1000, , ,1442, ,{5478E186-8804-4C9E-8A68-D4B17F1512BF},636905.8938,4535816.443
"POINT (640078.8428 4520783.9255)",IN798806,Markle Police Dept,155 W Sparks St,Markle,46770-0000, , ,1442, ,{32D302C9-07DF-4F80-A102-8791675AEEBE},640078.8428,4520783.9255
"POINT (626729.2424 4526621.4821)",IN798807,Huntington Police Dept,300 Cherry St,Huntington,46750-2677, , ,1442, ,{97A765CA-8328-489B-94A8-7EA06B5FFF45},626729.2424,4526621.4821
"POINT (627151.8099 4526554.3556)",IN798808,Huntington County Sheriff Dept,332 E State St,Huntington,46750-2850, , ,1442, ,{29F1C666-87B7-48AE-9C20-60E787BE972B},627151.8099,4526554.3556
"POINT (617850.344 4524042.4615)",IN798809,Andrews Town Marshall,66 N Main St,Andrews,46702-0000, , ,1442, ,{AE10D99D-047B-4E8A-B771-C9DBC3BA4885},617850.344,4524042.4615
"POINT (483655.6104 4561294.0495)",IN798810,Demotte Police Dept,112 Carnation St SE,Demotte,46310-0000, , ,1442, ,{5BCDC411-77B3-46A8-AD57-BCBD2D64A38B},483655.6104,4561294.0495
"POINT (487204.9802 4531623.6508)",IN798811,Rensselaer Police Dept,122 S Van Rensselaer St,Rensselaer,47978-2815, , ,1442, ,{C3E7ED42-BE61-43D5-969B-D4EB26C70FEC},487204.9802,4531623.6508
"POINT (487295.3846 4534251.0738)",IN798812,Jasper County Sheriff Dept,2171 N. McKinley Ave,Rensselaer,47978-2831, , ,1442, ,{FE845C08-B6C7-483B-A729-1B31A2B60513},487295.3846,4534251.0738
"POINT (495423.0922 4560084.8866)",IN798813,Wheatfield Police Dept,71 N Main St,Wheatfield,46392-8801, , ,1442, ,{23164A79-ADFB-4DFC-BAC8-653C8E29CAD6},495423.0922,4560084.8866
"POINT (487006.2428 4516752.3439)",IN798814,Remington Police Dept,PO Box 70,Remington,47977-0070, , ,1442, ,{7016FBA3-B65B-4C31-BB34-53C65688600A},487006.2428,4516752.3439
"POINT (581309.6664 4370038.5568)",IN798815,Franklin Police Dept,1 Caisson Dr # A,Franklin,46131-2443, , ,2156, ,{CFBA10C4-1FFA-4AA5-A4E4-67D0DCAF5D0E},581309.6664,4370038.5568
"POINT (579446.0041 4370084.7165)",IN798816,Sheriff's Dept,1091 Hospital Rd,Franklin,46131-9025, , ,3000, ,{DA423780-65E5-4A3B-996A-65DC5AFEB911},579446.0041,4370084.7165
"POINT (588905.9755 4356447.1318)",IN798817,Edinburgh Police Dept,200 S Main St,Edinburgh,46124-1411, , ,1850, ,{63435F38-B457-4798-81E6-E8411434204A},588905.9755,4356447.1318
"POINT (571492.7188 4374940.882)",IN798818,Bargersvill Police Dept,12 Main St,Bargersville,46106-0000, , ,500, ,{BDB46AE6-9F75-485B-9947-6BB0515F7290},571492.7188,4374940.882
"POINT (576963.9453 4385062.8759)",IN798819,Greenwood Police Dept,186 Surina Way,Greenwood,46143-1627, , ,10973, ,{D2F8075F-F49F-4506-8153-42A9AAF50A80},576963.9453,4385062.8759
"POINT (577598.499 4379840.2045)",IN798820,New Whiteland Police Dept,300 Tracy Rd,Whiteland,46184-1026, , ,1000, ,{1ECCDA5B-EEA0-4FF9-96D5-910D2986F61A},577598.499,4379840.2045
"POINT (579114.4935 4378192.8574)",IN798821,Whiteland Police Dept,549 Main St,Whiteland,46184-1552, , ,1000, ,{85641A61-211D-46F4-96FF-49AF489BF6A2},579114.4935,4378192.8574
"POINT (572431.8273 4357657.1317)",IN798822,Trafalgar Police Dept,800 S County Rd 300 W,Trafalgar,46181-0000, , ,1500, ,{63790887-6AE5-4E14-8BB8-F779920FFE7A},572431.8273,4357657.1317
"POINT (608945.8441 4575655.7332)",IN798824,North Webster Police Dept,144 S Main St,North Webster,46555-0000, , ,1442, ,{39AE77E9-4102-4F72-AD49-9441CDBFCF0B},608945.8441,4575655.7332
"POINT (580722.5581 4558429.3993)",IN798825,Mentone Town Police Dept,121 W Main,Mentone,46539-0000, , ,1442, ,{A598DEF9-D0A5-4FD4-A5F9-357EC5DFA225},580722.5581,4558429.3993
"POINT (595614.278 4565899.8641)",IN798826,Kosciusko County Sheriff's Ofc,221 W Main St,Warsaw,46580-2715, , ,1442, ,{3F0AF80F-1C31-41F5-8FED-4B02C06E21BA},595614.278,4565899.8641
"POINT (598234.4314 4566077.9746)",IN798827,Warsaw Police Dept,2191 E Fort Wayne St,Warsaw,46580-2810, , ,1442, ,{51B8FC42-D0F8-4872-8A92-376E624F8C9F},598234.4314,4566077.9746
"POINT (604486.0094 4586672.2908)",IN798828,Syracuse Police Dept,310 N Huntington St,Syracuse,46567-1309, , ,1442, ,{4C3DDC4A-9C0D-468B-9B9F-0E27DDB6FC0E},604486.0094,4586672.2908
"POINT (594087.1376 4553804.9849)",IN798829,Claypool Police Dept,408 S Graceland Ave,Claypool,46510-0000, , ,1442, ,{234C5C7B-D403-42D9-9240-DA80CBCF33C7},594087.1376,4553804.9849
"POINT (593071.9498 4547945.0282)",IN798830,Silver Lake Police Dept,604 N Jefferson St,Silver Lake,46982-8976, , ,1442, ,{E9BE1805-7C48-47FA-8C82-88FBA2B424E2},593071.9498,4547945.0282
"POINT (598736.0827 4564251.53)",IN798831,Winona Lake Police Dept,1310 Park Ave,Winona Lake,46590-1051, , ,1442, ,{4104A3AC-A4DF-4BD8-A2E3-BF159BF1CB82},598736.0827,4564251.53
"POINT (608515.1192 4561809.9925)",IN798832,Peirceton Police Dept,205 N First St,Pierceton, , , ,1803, ,{9BA43A4B-615A-425D-A434-8CAE3487B61A},608515.1192,4561809.9925
"POINT (621821.6887 4599671.4305)",IN798834,Topeka Police Dept,101 S Main St,Topeka,46571-9099, , ,206, ,{30767B63-2F82-4475-8035-8C1A32DC3A40},621821.6887,4599671.4305
"POINT (618372.8027 4614979.5813)",IN798835,Shipshewana Police Dept,345 N Morton St.,Shipshewana,46565-0000, , ,1229, ,{72AAD2B4-0330-4FA5-81AD-B3670C9A0A0C},618372.8027,4614979.5813
"POINT (631150.3269 4612665.1903)",IN798836,LaGrange City Police,104 N Townline Rd.,LaGrange, , , ,1320, ,{D8AFA50D-8273-443A-9AD8-F61E0F46C3F3},631150.3269,4612665.1903
"POINT (636275.7134 4598620.8503)",IN798837,Wolcottville Police,104 W Race St.,Wolcottville, , , ,35, ,{44A5DD1C-AA24-444C-B9D8-3A538445F2AD},636275.7134,4598620.8503
"POINT (633321.6549 4387237.8229)",IN798876,Rushville Police Hdqrs,270 W 15th St,Rushville,46173-1193, , ,1442, ,{ADDCBA66-76F7-4D50-9226-023E9C6ED86E},633321.6549,4387237.8229
"POINT (464668.9428 4327496.018)",IN798881,Sullivan Police Dept,32 N. Court,Sullivan,47882-1521, ,812-268-4308,1442, ,{3A72D7A7-BD5A-40FE-AFBE-0EE22C1E187A},464668.9428,4327496.018
"POINT (481413.1642 4584672.7876)",IN798838,Lakes Of Four Seasons Security,1048 N Lakeshore Dr,Crown Point,46307-9401, , ,1442, ,{64A2E596-A7AB-4C7D-A462-5F144B40A0FD},481413.1642,4584672.7876
"POINT (457965.0419 4601162.4382)",IN798839,Munster Police Dept,1001 Ridge Rd,Munster,46321-1849, , ,1442, ,{6706F464-F768-4B86-A3EB-3C2C9BE07906},457965.0419,4601162.4382
"POINT (460895.5913 4588747.9923)",IN798840,St John Police Dept,11033 W 93rd Ave,St John,46373-9701, , ,1442, ,{9632760E-E5B9-4EC1-B75D-DED5A831C77F},460895.5913,4588747.9923
"POINT (464343.1423 4596914.7074)",IN798841,Griffith Police Dept,115 N Broad St,Griffith,46319-2293, , ,1442, ,{D70D117E-BD11-49DD-9C47-8849462FFD2E},464343.1423,4596914.7074
"POINT (477020.0368 4600797.7582)",IN798842,New Chicago Police Dept,122 Huber Blvd,Hobart,46342-1013, , ,1442, ,{9D56E6CB-4E46-4647-98F9-429C59B63CBD},477020.0368,4600797.7582
"POINT (465800.9822 4571126.5363)",IN798843,Lowell Police Dept,1333 E Commercial Ave,Lowell,46356-2168, , ,1442, ,{577BE675-A803-4B2C-981F-C6C856D8C784},465800.9822,4571126.5363
"POINT (469676.7812 4585290.8498)",IN798844,Crown Point Police Dept,124 N East St,Crown Point,46307-4028, , ,1442, ,{33D9C616-4065-44B2-BAD5-7ED6AB7F3BE3},469676.7812,4585290.8498
"POINT (471917.8202 4604306.3935)",IN798845,Gary Police Dept,1301 Broadway,Gary,46407-1326, , ,1442, ,{DA7B1065-29B4-49C1-984A-74B69C1063CA},471917.8202,4604306.3935
"POINT (460686.7431 4593807.3044)",IN798846,Police Dept,1610 Us Highway 41,Schererville,46375-1318, , ,1442, ,{C9EC6D1F-6D82-4524-A01B-B44A8C2C1BDC},460686.7431,4593807.3044
"POINT (459230.8912 4614237.3001)",IN798847,Whiting Police Dept,1914 Schrage Ave,Whiting,46394-2007, , ,1442, ,{2A6416D9-667A-4B2C-B2E7-8AD11A2B0D5A},459230.8912,4614237.3001
"POINT (478656.7966 4597929.4861)",IN798848,Hobart Police Dept,200 Main St,Hobart,46342-4440, , ,1442, ,{631729EA-4DE1-4B50-AA1F-742A3CE69A33},478656.7966,4597929.4861
"POINT (469571.7826 4588539.739)",IN798849,Lake County Sheriff Bureau-Id,2293 N Main St,Crown Point,46307-1854, , ,1442, ,{778F4778-770C-4208-95F9-3770CE774E40},469571.7826,4588539.739
"POINT (456460.4766 4593660.5838)",IN798850,Dyer Police Dept,230 Schulte St,Dyer,46311-1860, , ,1442, ,{BF5E3CBC-A865-4017-BF54-6612157BB3D3},456460.4766,4593660.5838
"POINT (463053.9382 4609717.8297)",IN798851,East Chicago Police Dept,2301 E Columbus Dr,East Chicago,46312-2876, , ,1442, ,{3C0BA0D9-17D1-4417-B4D8-380F795F6E46},463053.9382,4609717.8297
"POINT (456559.9013 4607364.8892)",IN798852,Lake County Sheriff's Office,232 Russell St,Hammond,46320-1814, , ,1442, ,{FF343AA6-8B8B-461F-A9BC-6D99961A178D},456559.9013,4607364.8892
"POINT (462422.6067 4559481.9353)",IN798853,Schneider Police Dept,23800 Parrish Ave,Schneider,46376-0000, , ,1442, ,{6C4B2625-A3E8-4D62-B643-67F3986686A9},462422.6067,4559481.9353
"POINT (462386.1476 4593470.7323)",IN798854,Schererville Police Dept,25 E Joliet St,Schererville,46375-2010, , ,1442, ,{BE752019-C8F4-43C3-8A42-8D034F1A31A3},462386.1476,4593470.7323
"POINT (462641.1877 4600319.5269)",IN798855,Highland Police Dept,3333 Ridge Rd # 3,Highland,46322-2097, , ,1442, ,{257A570A-6C1A-486C-9C91-A3A48618692C},462641.1877,4600319.5269
"POINT (480031.1273 4602578.4453)",IN798857,Lake Station Police Dept,3629 Central Ave,Lake Station,46405-2392, , ,1442, ,{16A6C190-A31A-424B-A305-A37EFD8B4ACA},480031.1273,4602578.4453
"POINT (462958.1081 4610515.4847)",IN798858,Lake County Sheriff,3711 Main St,East Chicago,46312-2223, , ,1442, ,{C751F3C8-0353-4CC3-B09F-0543F9429F64},462958.1081,4610515.4847
"POINT (471895.4738 4605839.7079)",IN798859,Lake County Sheriff's Ofc,400 Broadway,Gary,46402-1233, , ,1442, ,{034C0775-2C79-418A-9E83-C836A935C63B},471895.4738,4605839.7079
"POINT (478670.1636 4597936.1078)",IN798860,Hobart Police-Detective Bureau,414 Main St,Hobart,46342-4444, , ,1442, ,{7B2CD9D5-6CA2-40AD-A599-9C57D454F24C},478670.1636,4597936.1078
"POINT (467263.8723 4605645.0264)",IN798861,Gary Police Community Relation,4491 W 5th Ave,Gary,46406-1747, , ,1442, ,{3A92913D-9E2A-4CA1-9AE8-35A7368F67AA},467263.8723,4605645.0264
"POINT (456954.6787 4607341.419)",IN798862,Hammond City Police Dept,520 Fayette St,Hammond,46320-1805, , ,1442, ,{A910B622-5EDD-4CFD-950E-046CF44BC6B8},456954.6787,4607341.419
"POINT (457595.0746 4606159.6294)",IN798863,Hammond Police Dept,5925 Calumet Ave # 115,Hammond,46320-2554, , ,1442, ,{A39E7777-5E7A-42B4-A09F-544AE9218E39},457595.0746,4606159.6294
"POINT (464537.5466 4579712.1302)",IN798864,Cedar Lake Police Dept,7408 Constitution Ave,Cedar Lake,46303-9186, , ,1442, ,{CF983457-5FC9-4EDA-98B2-9948D867D431},464537.5466,4579712.1302
"POINT (471844.5396 4591722.3663)",IN798865,Police Dept,7820 Broadway,Merrillville,46410-5557, , ,1442, ,{735D10E7-18E5-44C3-B0F6-CA48CD4E09B0},471844.5396,4591722.3663
"POINT (471512.4149 4604854.2202)",IN798866,Gary Police Civil Svc Comm,900 Madison St,Gary,46402-2832, , ,1442, ,{9948CCAC-C646-4E0F-A78D-6474A7812E59},471512.4149,4604854.2202
"POINT (457002.2233 4607211.2341)",IN798867,Central Police Station,509 Douglas Street,Hammond,46320, , ,1803, ,{8FED2AD3-A6A3-422A-BFE4-768AC537ADC9},457002.2233,4607211.2341
"POINT (571272.4062 4588619.3857)",IN798868,Bremen Police Dept,123 S Center St,Bremen,46506-1566, , ,1442,AMC Location Confirmed,{CD60C3CE-77B8-4E1E-BB5B-55461B49787E},571272.4062,4588619.3857
"POINT (563163.3501 4565337.3948)",IN798869,Argos Police Dept,125 W Walnut St,Argos,46501-1025, , ,1442,AMC Location Confirmed,{D53A5389-833C-4AEF-B1A3-927D7A853A0F},563163.3501,4565337.3948
"POINT (567416.3182 4589946.9516)",IN798870,Indiana State Police Post #24,1425 Miami Hwy,Bremen,46506-9665, , ,1442,AMC Location Confirmed,{FBE7B068-9333-481D-B481-01AF48B3FE10},567416.3182,4589946.9516
"POINT (548416.1605 4563080.6492)",IN798871,Culver Police Dept-Records,200 E Washington St,Culver,46511-1534, , ,1442,AMC Location Confirmed,{B8941DD5-9C91-4EE7-8DDF-7A5B823A3854},548416.1605,4563080.6492
"POINT (554625.3929 4578019.2791)",IN798872,Marshall County Sheriff,1400 N Pioneer Dr.,Plymouth,46563-1710, , ,1442,AMC Location Confirmed,{7DF9DECD-7FD5-4981-8E09-855CDEA6A191},554625.3929,4578019.2791
"POINT (557616.1735 4576862.2291)",IN798873,Plymouth Police Dept,215 W Washington St,Plymouth,46563-1747, , ,1442,AMC Location Confirmed,{B53AC9F8-DC66-4CFD-8526-F298320CC1B5},557616.1735,4576862.2291
"POINT (574007.1227 4572114.5025)",IN798874,Bourbon Town Police Dept,224 N Main St,Bourbon,46504-1648, , ,1442,AMC Location Confirmed,{57C4F22B-3A25-46E2-B54B-D6AD5C8453DB},574007.1227,4572114.5025
"POINT (557906.2744 4589961.0894)",IN798875,LaPaz Police Department,108 E Randolph St.,LaPaz, , , ,1803,AMC County Added,{4DAAE444-AC49-41A7-B4B6-32A067B5796A},557906.2744,4589961.0894
"POINT (645865.1407 4387963.5024)",IN798877,Glenwood Police,403 N Main St,Glenwood,46133-0000, , ,1442, ,{0E39F8D1-A113-4098-9326-4F07922290C2},645865.1407,4387963.5024
"POINT (622366.9159 4399793.3177)",IN798878,Carthage Town Marshall,6 W 1st,Carthage,46115-0000, , ,1442, ,{EFBA2A2F-D678-418E-BDA9-D34E4FE156D8},622366.9159,4399793.3177
"POINT (533335.2472 4544409.9845)",IN798879,Pulaski County Sheriff,110 E Meridian St,Winamac,46996-1510,Sheriff Mike Gayer, ,15500, ,{C0490935-1AF5-4440-B350-E29AF80EA6B7},533335.2472,4544409.9845
"POINT (532496.0595 4544895.7845)",IN798880,Winamac Police Dept,623 W 11th St.,Winamac, ,Chief Jeff Heims, ,1900, ,{FDA8B525-E776-49BD-9836-E9FFFD0662FE},532496.0595,4544895.7845
"POINT (477554.3864 4324346.9223)",IN798882,Dugger Police Dept,969 S Section St,Dugger,47848-8090, ,812-268-4308,1442, ,{8396B142-C18E-473D-8C43-1C643DEB84C5},477554.3864,4324346.9223
"POINT (464876.8471 4327383.0004)",IN798883,Sullivan County Sheriffs Department,24 S State St,Sullivan,47882, ,812-268-4308,, ,{55E50457-7B2F-47FA-B50F-FD66CA5E3EC0},464876.8471,4327383.0004
"POINT (590190.4077 4468599.4011)",IN798885,Windfall Police Dept,210 S Independence St,Windfall,46076-0000, , ,1442, ,{A6EBB028-2295-4286-A663-F26A862E026A},590190.4077,4468599.4011
"POINT (581689.9675 4459532.3615)",IN798886,Tipton Police Dept,225 E Jefferson St,Tipton,46072-1911, , ,1442, ,{5ABF1A13-9636-4E3D-B3E2-AEF16FB96EE7},581689.9675,4459532.3615
"POINT (566422.033 4461542.4357)",IN798887,Kempton Police Dept,205 S Main St.,Kempton,46049-0136, , ,1442, ,{A25C9016-114C-4ADD-AFC7-432CCE6F6875},566422.033,4461542.4357
"POINT (577579.2112 4470249.1703)",IN798888,Police department, 124 S Main St.,Sharpsville, , , ,1803, ,{48B24B2B-A111-4F5B-B5E0-BC02CB30032A},577579.2112,4470249.1703
"POINT (574184.6178 4514015.561)",IN798889,Indiana State Police,1451 N Eel River Cemetery Rd,Peru,46970-7513, , ,1000, ,{27C9D506-CF78-40DF-9A88-0742D0670928},574184.6178,4514015.561
"POINT (578619.3512 4511910.8788)",IN798890,Indiana Drug Enforcement Assn,35 Court St.,Peru,46970-3650, , ,1400, ,{9D6E98A6-48D5-49E6-B085-226D54AA5AFB},578619.3512,4511910.8788
"POINT (595376.153 4492710.5547)",IN798891,Converse Police Dept,210 N Jefferson St,Converse,46919-0000, , ,300,Does not match county info,{01EEC8DC-501D-4078-BF0A-0229608E4A96},595376.153,4492710.5547
"POINT (578620.2307 4511907.5575)",IN798892,Miami County Sheriff Dept,35 Court St,Peru,46970-2201, , ,1442,Does not match county info,{9BEB747D-2F52-4CA8-B426-FAE261146C07},578620.2307,4511907.5575
"POINT (578576.1068 4511769.4253)",IN798893,Peru Police Dept,35 S Broadway,Peru,46970-2231, , ,2500,Does not match county info,{4AF3DDCE-16EF-4F46-B1EC-B6025848257D},578576.1068,4511769.4253
"POINT (574183.8963 4514003.3418)",IN798894,Miami County Crime Stopper,1451 N Eel River Cemetery Rd,Peru, , , ,1442, ,{AF264DB5-8CE3-4294-A75A-EC5E994CC93A},574183.8963,4514003.3418
"POINT (575451.6123 4501458.9588)",IN798895,Bunker Hill PD,280 West Broadway,Bunker Hill, , , ,850, ,{BAFF35FE-92AB-4D3F-9D91-D493EB1A4965},575451.6123,4501458.9588
"POINT (531921.6645 4343519.7638)",IN798896,Ellettsville Police Dept,1406 West Temperance Street,Ellettsville,47429-1812, , ,1442, ,{F8B2531E-EB89-4D13-871E-D6ACE4625EA1},531921.6645,4343519.7638
"POINT (542669.5071 4333070.2238)",IN798897,Monroe County Police Legal,122 S Walnut St,Bloomington,47404-6107, , ,1442, ,{DE1DAFC8-FF7F-418C-A2BD-5FD9C3539881},542669.5071,4333070.2238
"POINT (540473.458 4335117.2205)",IN798898,Bloomington Police Dept,220 E 3rd St,Bloomington,47401-3513, , ,1442, ,{CD2AC3D6-95F6-4547-A7AF-A9396C956EAB},540473.458,4335117.2205
"POINT (540171.9999 4335611.7409)",IN798899,Monroe County Sheriff,301 N College Ave,Bloomington,47404-3843, , ,1442, ,{15C21C1A-26FA-4888-99CD-EA05CB749007},540171.9999,4335611.7409
"POINT (539820.3551 4335280.3418)",IN798900,Monroe County Auxiliary Police,505 W 4th St,Bloomington,47404-5129, , ,1442, ,{E2DC2156-0FF6-4650-B493-05588D2EC624},539820.3551,4335280.3418
"POINT (530321.9127 4350121.0438)",IN798901,Stinesville Police Dept,7951 W Main St,Stinesville,47464-0000, , ,1442, ,{8AF468EC-C8AC-47DD-B7CE-60C557739965},530321.9127,4350121.0438
"POINT (541808.6321 4336178.5228)",IN798902,Indiana University-Police Dept,801 N Jordan Ave,Bloomington,47405-2107, , ,1442, ,{B09D8059-DF46-4A21-84EA-76F98C7AAB19},541808.6321,4336178.5228
"POINT (541449.3185 4337477.2805)",IN798903,Indiana State Police - Bloomington Post,2135 N Fee Lane,Bloomington,47404, , ,1442, ,{6B926E4A-C348-4808-81C2-C3050A1F5D5D},541449.3185,4337477.2805
"POINT (553420.7785 4384989.3158)",IN798904,Mooresville Police Dept,104 W Main St,Mooresville,46158-1667,Chief Viles,(317) 831-3434,1442, ,{E390DC5F-3C80-4732-BFA8-35629E23CD35},553420.7785,4384989.3158
"POINT (563554.0984 4358255.4718)",IN798905,Morgantown Police Dept,120 W Washington St,Morgantown,46160-9547,Town Marshall Charlie Beaver,(812) 597-4604,1442, ,{1A3E7218-2F61-490D-ACE2-939ACE472EF3},563554.0984,4358255.4718
"POINT (554190.1211 4376762.641)",IN798906,Town of Brooklyn Police Dept,16 E Mill,Brooklyn,46111-0000, ,(317) 831-2138,1442, ,{82F9E2E1-4955-449C-86BC-7CC9DB4D04B1},554190.1211,4376762.641
"POINT (548229.1305 4364544.7144)",IN798907,Morgan County Sheriff,160 N Park Ave,Martinsville,46151-1400,Sheriff Bob Garner,(765) 342-1080,1442, ,{CA6EFED4-824F-44E7-91D3-FF745E2B7280},548229.1305,4364544.7144
"POINT (549313.9274 4364225.2335)",IN798908,City of Martinsville Police Dept,59 S Jefferson St,Martinsville,46151-4800,Chief Jon Davis,(765) 342-6614,1442, ,{0454EE17-87A3-46F9-A8F4-A17848E5FA5C},549313.9274,4364225.2335
"POINT (548229.1305 4364544.7144)",IN798909,Monrovia Police Dept,160 N Park Ave,Martinsville,46151-0000,Chief Bob Marley,(317) 996-6117,1803, ,{79850936-89DB-4277-B11C-0D03C9650CFE},548229.1305,4364544.7144
"POINT (537563.0296 4360710.171)",IN798910,Paragon Police Dept,209 W Union,Paragon,46166-0000,Town Marshall Brian Goss,(765) 537-2513,1803, ,{94DCE800-650A-407A-A6D2-BB90A8235A1F},537563.0296,4360710.171
"POINT (462382.3599 4555087.0151)",IN798911,Newton Co. Satellite Police,10093 N 300 W,Lake Village,46349-9492, , ,1442, ,{CB5F0E62-4C06-4406-9062-E1131F5C4904},462382.3599,4555087.0151
"POINT (461867.1015 4532945.7486)",IN798912,Morocco Police Department,112 N Clay,Morocco,47963-0000,Shawn Wynm, ,1442, ,{E3FCAF0E-BA37-44AE-982F-F32D37FC174A},461867.1015,4532945.7486
"POINT (462451.0448 4513353.9003)",IN798913,Kentland Police Dept,300 N 3rd St,Kentland,47951-1112,Vince Lowe, ,1442, ,{00FC4114-A464-4CCD-82CB-C0ACCA2772A4},462451.0448,4513353.9003
"POINT (462492.1224 4513132.7855)",IN798914,Newton Co. Sheriff Dept,304 E Seymour St,Kentland,47951-1242,Don Hartman, ,1442, ,{2CD10EF8-39D3-4E21-B723-6534F2FD9FC3},462492.1224,4513132.7855
"POINT (475458.8265 4512873.0968)",IN798915,Goodland Town Marshall,110 N Benton,Brook, ,Office in Townhall, ,1803, ,{26D00ECE-CF1E-4D56-91D3-9E0CAF8DEE50},475458.8265,4512873.0968
"POINT (519583.1223 4348833.7527)",IN798916,Owen County Sheriff Dept,291 Vandalia Ave,Spencer,47460-1143, , ,1442, ,{DF3D440C-4B76-4299-84C0-888623E18A57},519583.1223,4348833.7527
"POINT (520295.9671 4348639.1441)",IN798917,Spencer Police Dept,90 N West St,Spencer,47460-1396, , ,1442, ,{B997CA55-4ABB-4A3A-9311-10E664D94B92},520295.9671,4348639.1441
"POINT (529037.6843 4355526.3927)",IN798918,Gosport Police Dept,13 S 3RD ST,Gosport,47433, , ,700, ,{E70057B9-C28C-40B8-8F22-22647D87802E},529037.6843,4355526.3927
"POINT (475438.8215 4260148.1463)",IN798919,Pike County Sheriff Office,100 S 4th St,Petersburg,47567-1411,Sheriff Todd Meador, ,1442, ,{5AEA0B71-A2C5-45EE-98F0-03119EF53B14},475438.8215,4260148.1463
"POINT (481111.9333 4248256.6256)",IN798920,Winslow Police Dept,301 N Main St,Winslow,47598-0000,Marshal Stave English, ,1442, ,{46786A82-5666-4D31-BD29-22377E4F106B},481111.9333,4248256.6256
"POINT (475556.3227 4260357.5072)",IN798921,Petersburg Police Department,702 E. Main Street,Petersburg,47567,Chief Chuck Baumhart,(812) 354-8716,1803, ,{506325BF-54BD-45EE-85D7-E3B5A9B718C7},475556.3227,4260357.5072
"POINT (483329.6183 4574163.6693)",IN798922,Hebron Police Dept,106 E Sigler,Hebron,46341-0000,Steve Sibbrell,(219)996-2111,1500,Alt Phone # (219)996-2747,{AFE63DD6-6E2E-400A-A5BF-281A2DD1B703},483329.6183,4574163.6693
"POINT (484263.0448 4607616.1034)",IN798923,Ogden Dunes Police Dept,115 Hillcrest Rd,Ogden Dunes,46368-8502,Jim Reeder,(219)762-4125,100, ,{398B3D5D-2473-4B42-939D-D31B4526FDDE},484263.0448,4607616.1034
"POINT (489443.5709 4606750.6492)",IN798924,Burns Harbor Police Dept,1240 W North Boo Rd,Chesterton,46304-9707,Gene Price,(219)787-9411,525, ,{D4468842-2924-4478-9475-B5FB80CFF53A},489443.5709,4606750.6492
"POINT (497933.3183 4587925.3551)",IN798925,Porter County Sheriff Dept,2755 SR 49,Valparaiso,46383-5631,Dave Lain,(219)477-3000,35000, ,{7B912B94-285F-42B2-A15E-880DDE81C4B1},497933.3183,4587925.3551
"POINT (494975.3065 4590329.242)",IN798926,Valparaiso Police,355 Washington St.,Valparaiso,46383-5634,Mike Brickner,(219)462-2135,4000, ,{768E4406-BB76-411E-9DAD-E47455D3E1A5},494975.3065,4590329.242
"POINT (484945.4178 4602475.4521)",IN798927,Portage Police Dept,2693 Irving St # P,Portage,46368-3597,Mark Becker,(219)762-3122,2600, ,{6E5D4FF8-BCC5-4AE0-82EA-CA450F75D603},484945.4178,4602475.4521
"POINT (497807.1421 4573986.1166)",IN798928,Kouts Village Police,210 S Main St.,Kouts,46347-0000,Jim Boyce,(219)766-2332,865, ,{C350B4F5-D1DF-4057-B17A-0F9DAD8BAFBF},497807.1421,4573986.1166
"POINT (493936.4352 4607149.5735)",IN798929,Porter Police Dept,50 Francis St,Porter,46304-1700,Jamie Spanier,(219)926-7611,700, ,{34DD5768-A7B3-4ACC-A782-260844C900AA},493936.4352,4607149.5735
"POINT (494781.7371 4606692.612)",IN798930,Chesterton Police Dept,726 Broadway,Chesterton,46304-2229,George Nelson,(219)926-1136,2600, ,{F9EA8E0D-2F1A-4143-A7CA-3931DB0DD705},494781.7371,4606692.612
"POINT (496005.8511 4588912.0043)",IN798931,Valparaiso Universtiy Police,816 Union St,Valparaiso,46383,Becky Wokowiak,(219)464-5430,1600, ,{15C9323C-C53E-4B34-88B6-CE496B8E9592},496005.8511,4588912.0043
"POINT (492788.286 4610382.4789)",IN798932,Dune Acres Town Marshal,1600 N. Mineral Springs Rd,Chesterton,46304,Cecilia Call,(219)787-7700,1803, ,{454B8D98-E4E4-435B-BDEF-60E65C571AE2},492788.286,4610382.4789
"POINT (540845.1315 4617255.4457)",IN798933,New Carlisle Police Dept,124 E Michigan St,New Carlisle,46552-0000, , ,1442, ,{A413EAE6-281D-4044-ADD3-B75DAF67A049},540845.1315,4617255.4457
"POINT (547826.9135 4598301.9166)",IN798934,North Liberty Police Dept,116 N Main St,North Liberty,46554-9218, , ,1442, ,{3E1416D4-8047-4EDE-89ED-0DC8A8140745},547826.9135,4598301.9166
"POINT (562156.1788 4614071.002)",IN798935,Sheriff-Investigative Div,125 S Lafayette St.,South Bend,46601-1804, , ,1442, ,{AABD1C25-A0FD-45F5-B798-3FFD2844807A},562156.1788,4614071.002
"POINT (562736.2273 4618367.4615)",IN798936,Roseland Police Dept,200 Independence Dr,South Bend,46637-3414, , ,1442, ,{C1A40E77-E3C9-4721-9A83-3E647B61911D},562736.2273,4618367.4615
"POINT (560503.3369 4597088.1502)",IN798938,Lakeville Police Dept,209 S Michigan St,Lakeville,46536-0000, , ,1442, ,{3185E78A-A5AA-49ED-8D46-F2A8BBA897AE},560503.3369,4597088.1502
"POINT (562171.1808 4614068.9114)",IN798939,Sheriff-Civil Div,125 S Lafayette St.,South Bend,46601-1830, , ,1442, ,{340E6A31-063B-4D7D-955B-A1095DC2391F},562171.1808,4614068.9114
"POINT (560591.359 4618285.707)",IN798940,South Bend Pinhook Park-Police,2801 Riverside Dr,South Bend,46616-2157, , ,1442, ,{2EA361E7-5E5B-40CF-BB5B-AA60F2EE4723},560591.359,4618285.707
"POINT (543125.5795 4590709.3201)",IN798941,Walkerton Police Dept,402 Michigan St,Walkerton,46574-1114, , ,1442, ,{CB375F12-F265-4404-AC71-CF0C13DDE108},543125.5795,4590709.3201
"POINT (557692.921 4616112.2088)",IN798942,Sheriff-County Police-Patrol,4817 Lincoln Way W,South Bend,46628-5525, , ,1442, ,{AD401D39-0ADB-426A-848F-8230A28A8A6D},557692.921,4616112.2088
"POINT (562980.0779 4614000.467)",IN798943,South Bend Police Special Crms,523 E Jefferson Blvd,South Bend,46617-2704, , ,1442, ,{661262C3-73D8-46F9-921C-5FD05E0D5168},562980.0779,4614000.467
"POINT (562065.3359 4612928.8075)",IN798944,South Bend Police DEPT-Dare,401 W Sample St # A,South Bend,46601-2890, , ,1442, ,{CC882ECB-688D-497D-B4E3-6120481EF28F},562065.3359,4612928.8075
"POINT (561679.3017 4612896.6102)",IN798945,Police Dept-Crime Prevention,701 W Sample St,South Bend,46601-2821, , ,1442, ,{84BDA9CB-AA94-4B4E-87E0-EE278A5BE34B},561679.3017,4612896.6102
"POINT (576593.5757 4612820.4749)",IN798946,Osceola Police Dept,850 Lincoln Way W,Osceola,46561-2646, , ,1442, ,{57C56BD5-4593-4F9C-9004-228FCF438E97},576593.5757,4612820.4749
"POINT (569156.6348 4617910.2642)",IN798947,Mishawaka Police Sub Division,360 East Douglas Rd,Mishawaka, , , ,1442, ,{B880AE96-F6B7-46DD-ACD1-C48AAC4AA061},569156.6348,4617910.2642
"POINT (605006.7499 4375265.3716)",IN798949,Shelby County Sheriff Dept,107 W Taylor St,Shelbyville,46176-2028, , ,1442, ,{ADAF8697-62E1-4DAB-8649-85E702D38466},605006.7499,4375265.3716
"POINT (611070.1041 4392540.0626)",IN798950,Morristown Police Dept.,230 E Main St,Morristown,46161, , ,1442, ,{CA9A3C4A-1143-41BF-855F-120A634158E5},611070.1041,4392540.0626
"POINT (531437.2123 4571971.1247)",IN798951,Knox Police Dept,101 W Washington St,Knox,46534-1155,Chief Clint Norem, ,1442,Updated,{9A127E34-9333-4A19-B6BE-F82ACF0995E7},531437.2123,4571971.1247
"POINT (531664.9191 4571975.4438)",IN798952,Starke County Sheriff Office,108 N Pearl St,Knox,46534-1138,Sheriff Oscar Cowen, ,1442,Updated,{18C47A22-F75A-491D-AA32-7C0F78F80CE9},531664.9191,4571975.4438
"POINT (518725.9143 4562785.1483)",IN798953,North Judson Police Dept,206 Keller Ave,North Judson,46366-1208,Marshall Doug Vessley, ,1442,Updated,{992EA323-9C58-4A8A-BC23-7FB6DC531461},518725.9143,4562785.1483
"POINT (534900.7801 4581029.4286)",IN798954,Hamlet Police Dept,10 S Strake St,Hamlet,4532,Chief Jeremia Patrick, ,1803,Added,{EAD6D4EF-5509-4FC2-B40E-078E657EF889},534900.7801,4581029.4286
"POINT (601014.4829 4520169.8888)",IN798955,Wabash Police Dept,1340 Manchester Ave,Wabash,46992-1615, , ,1442, ,{E9D9223A-E216-49C8-83DD-5007D0A6D094},601014.4829,4520169.8888
"POINT (608181.2294 4503271.1588)",IN798956,La Fontaine Town Marshall,22 W Branson St,La Fontaine,46940-0000, , ,1442, ,{6636890B-B812-4DBE-A862-0E29A29955B6},608181.2294,4503271.1588
"POINT (602704.6512 4539323.0648)",IN798957,North Manchester Police,709 W Main St,North Manchester,46962-1450, , ,1442, ,{FD4258CD-953D-43B9-9421-C304949A095E},602704.6512,4539323.0648
"POINT (599372.674 4516947.7591)",IN798958,Wabash County Sheriff's Office,79 W Main St,Wabash,46992-3162, , ,1442, ,{8E926D69-99FE-430F-AB19-6D25118761D3},599372.674,4516947.7591
"POINT (475207.4626 4460108.0965)",IN798959,Williamsport Police Dept,22 Front St,Williamsport,47993-1133, , ,1442, ,{3BB74A7F-C15E-4874-BAD7-13FC4E848920},475207.4626,4460108.0965
"POINT (475032.0611 4459759.0347)",IN798960,Warren County Sheriff,29 E 2nd St,Williamsport,47993-1146, ,765-764-4367,1442, ,{5C826D66-9BE8-4967-85BF-AE14D011DF9E},475032.0611,4459759.0347
"POINT (467151.9952 4458106.5488)",IN798961,West Lebanon Town Marshall,201 N High St,West Lebanon, , , ,1442, ,{B7FC4D02-5C7D-4BD0-8AE6-9542A148AFDB},467151.9952,4458106.5488
"POINT (496513.1978 4512123.9323)",IN798962,Wolcott Police Dept,100 W North St,Wolcott,47995-8272, , ,1442, ,{74950D84-0914-4367-BF6B-BA25549362FB},496513.1978,4512123.9323
"POINT (520077.5384 4510618.444)",IN798963,Monticello Chief Of Police,122 W Washington St,Monticello,47960-2163, , ,1442, ,{F0997720-77D8-46A5-8D11-B72950B37FA5},520077.5384,4510618.444
"POINT (511320.1197 4494639.8085)",IN798964,Brookston Police Dept,205 E 3rd,Brookston,47923-0000, , ,1442, ,{860AC689-5A70-4555-953B-1597F281233C},511320.1197,4494639.8085
"POINT (510155.914 4523642.5166)",IN798965,Monon Police Dept,422 N Market St,Monon,47959-9799, , ,1442, ,{521923B3-105E-43BE-B362-A9815FBC472A},510155.914,4523642.5166
"POINT (518910.9639 4511215.9149)",IN798966,White County Sheriff Records,915 Hanawalt St,Monticello,47960-1828, , ,1442, ,{22626619-BCC3-4952-8D8A-51832C920F2C},518910.9639,4511215.9149
"POINT (511190.7285 4501350.8359)",IN798967,Chalmers Police Department,205 E Walnut St,Chalmers,47929,Gary Adams,219-984-2665,1803, ,{385032A2-C912-4230-A88B-76BD213EEB67},511190.7285,4501350.8359
"POINT (626811.7614 4557143.442)",IN798968,Whitley County Sheriff,101 W Market St,Columbia City,46725-2312, , ,1442, ,{0A688166-D5C6-4F7F-9AFB-E9ECA2ADAD1C},626811.7614,4557143.442
"POINT (626683.0669 4557207.8392)",IN798969,Columbia City Police Dept,112 S Chauncey St,Columbia City,46725-2347, , ,1442, ,{BCBD7C36-D0BA-4520-88DC-F44802E8BCC0},626683.0669,4557207.8392
"POINT (615360.6805 4549041.7151)",IN798970,South Whitley Police Dept,118 E Front St,South Whitley,46787-1314, , ,1442, ,{292B0424-2229-409F-B56D-05B08DDD16ED},615360.6805,4549041.7151
"POINT (640815.0664 4565831.7803)",IN798971,Churubusco Police Dept,202 N Main St,Churubusco,46723-1711, , ,1442, ,{DC27C0E3-57AB-4FC0-95F3-D78C210B0142},640815.0664,4565831.7803
"POINT (500786.262 4299254.527)",IN798972,Odon Police Dept,102 E Walnut St,Odon,47562-1328, , ,1442, ,{237BE21C-6B2A-4DD2-8B7A-3B257D5722FE},500786.262,4299254.527
"POINT (485040.0764 4278879.5592)",IN798973,Washington Police Dept,101 NE 3rd St # 3,Washington,47501-2989, , ,1442, ,{30B73B68-9073-405F-9DFF-88B8E44DB286},485040.0764,4278879.5592
"POINT (484981.7945 4278886.3266)",IN798974,Daviess County Sheriff,301 E Walnut St,Washington,47501-2793, , ,1442, ,{19D1C936-822C-46F5-BCE5-473ADCCB5AE2},484981.7945,4278886.3266
"POINT (492476.1504 4303242.9382)",IN798975,Elnora Police Department,105 W Main Street,Elnora, , , ,1803, ,{B7B46A7C-53DE-4525-A138-688711AEFD62},492476.1504,4303242.9382
